{
 "type": "FeatureCollection",
 "features": [
  {
   "type": "Feature",
   "geometry": {
    "type": "Polygon",
    "coordinates": [
     [
      [
       177.4087102188184,
       -17.584
      ],
      [
       177.41004882590886,
       -17.5885
      ],
      [
       177.4092949335079,
       -17.5885
      ],
      [
       177.4079563451843,
       -17.584
      ],
      [
       177.4087102188184,
       -17.584
      ]
     ]
    ]
   },
   "properties": {
    "segment_id": "s03",
    "year": 2020
   }
  },
  {
   "type": "Feature",
   "geometry": {
    "type": "Polygon",
    "coordinates": [
     [
      [
       177.41004882590886,
       -17.5885
      ],
      [
       177.4108316274082,
       -17.593
      ],
      [
       177.4104546718215,
       -17.593
      ],
      [
       177.40967187970838,
       -17.5885
      ],
      [
       177.41004882590886,
       -17.5885
      ]
     ]
    ]
   },
   "properties": {
    "segment_id": "s04",
    "year": 2020
   }
  },
  {
   "type": "Feature",
   "geometry": {
    "type": "Polygon",
    "coordinates": [
     [
      [
       177.40584672004837,
       -17.6155
      ],
      [
       177.40385659222275,
       -17.62
      ],
      [
       177.40150026745667,
       -17.62
      ],
      [
       177.40349045405083,
       -17.6155
      ],
      [
       177.40584672004837,
       -17.6155
      ]
     ]
    ]
   },
   "properties": {
    "segment_id": "s10",
    "year": 2020
   }
  },
  {
   "type": "Feature",
   "geometry": {
    "type": "Polygon",
    "coordinates": [
     [
      [
       177.40045918502815,
       -17.628999999999998
      ],
      [
       177.39942591299237,
       -17.633499999999998
      ],
      [
       177.39904887280412,
       -17.633499999999998
      ],
      [
       177.40008215425127,
       -17.628999999999998
      ],
      [
       177.40045918502815,
       -17.628999999999998
      ]
     ]
    ]
   },
   "properties": {
    "segment_id": "s13",
    "year": 2020
   }
  },
  {
   "type": "Feature",
   "geometry": {
    "type": "Polygon",
    "coordinates": [
     [
      [
       177.39942591299237,
       -17.633499999999998
      ],
      [
       177.3990062704974,
       -17.637999999999998
      ],
      [
       177.39759233448842,
       -17.637999999999998
      ],
      [
       177.39801201228644,
       -17.633499999999998
      ],
      [
       177.39942591299237,
       -17.633499999999998
      ]
     ]
    ]
   },
   "properties": {
    "segment_id": "s14",
    "year": 2020
   }
  },
  {
   "type": "Feature",
   "geometry": {
    "type": "Polygon",
    "coordinates": [
     [
      [
       177.399246454352,
       -17.6425
      ],
      [
       177.4001200236506,
       -17.647
      ],
      [
       177.39936588677244,
       -17.647
      ],
      [
       177.39849233631332,
       -17.6425
      ],
      [
       177.399246454352,
       -17.6425
      ]
     ]
    ]
   },
   "properties": {
    "segment_id": "s16",
    "year": 2020
   }
  },
  {
   "type": "Feature",
   "geometry": {
    "type": "Polygon",
    "coordinates": [
     [
      [
       177.40153081054953,
       -17.6515
      ],
      [
       177.4033235070108,
       -17.656
      ],
      [
       177.40096671146733,
       -17.656
      ],
      [
       177.3991740739144,
       -17.6515
      ],
      [
       177.40153081054953,
       -17.6515
      ]
     ]
    ]
   },
   "properties": {
    "segment_id": "s18",
    "year": 2020
   }
  },
  {
   "type": "Feature",
   "geometry": {
    "type": "Polygon",
    "coordinates": [
     [
      [
       177.4033235070108,
       -17.656
      ],
      [
       177.40530076205928,
       -17.6605
      ],
      [
       177.40294390758996,
       -17.6605
      ],
      [
       177.40096671146733,
       -17.656
      ],
      [
       177.4033235070108,
       -17.656
      ]
     ]
    ]
   },
   "properties": {
    "segment_id": "s19",
    "year": 2020
   }
  },
  {
   "type": "Feature",
   "geometry": {
    "type": "Polygon",
    "coordinates": [
     [
      [
       177.40530076205928,
       -17.6605
      ],
      [
       177.40724490738342,
       -17.665
      ],
      [
       177.40686780123738,
       -17.665
      ],
      [
       177.4049236653442,
       -17.6605
      ],
      [
       177.40530076205928,
       -17.6605
      ]
     ]
    ]
   },
   "properties": {
    "segment_id": "s20",
    "year": 2020
   }
  }
 ]
}