{
 "type": "FeatureCollection",
 "features": [
  {
   "id": "0",
   "type": "Feature",
   "properties": {
    "kind": "lost since earlier year"
   },
   "geometry": {
    "type": "Polygon",
    "coordinates": [
     [
      [
       177.4306666666666,
       -17.744888888756797
      ],
      [
       177.43066666668634,
       -17.745333333327164
      ],
      [
       177.4304444444444,
       -17.745333333201252
      ],
      [
       177.4304444444444,
       -17.744666666534577
      ],
      [
       177.43111111111105,
       -17.744666666534584
      ],
      [
       177.43111111111105,
       -17.745333333201245
      ],
      [
       177.43111111111105,
       -17.7448888887568
      ],
      [
       177.4306666666666,
       -17.744888888756797
      ]
     ]
    ]
   },
   "bbox": [
    177.4304444444444,
    -17.745333333327164,
    177.43111111111105,
    -17.744666666534577
   ]
  },
  {
   "id": "0",
   "type": "Feature",
   "properties": {
    "kind": "lost since earlier year"
   },
   "geometry": {
    "type": "Polygon",
    "coordinates": [
     [
      [
       177.42999999999995,
       -17.740222222090175
      ],
      [
       177.42999999999995,
       -17.739999999867944
      ],
      [
       177.43022222222217,
       -17.73999999986795
      ],
      [
       177.43022222222217,
       -17.73977777764574
      ],
      [
       177.43022222222217,
       -17.740444444312395
      ],
      [
       177.42999999999995,
       -17.74044444431239
      ],
      [
       177.42999999999995,
       -17.740666666534615
      ],
      [
       177.42977777777773,
       -17.740666666534615
      ],
      [
       177.42977777777773,
       -17.7404444443124
      ],
      [
       177.4295555555555,
       -17.74044444431241
      ],
      [
       177.4295555555555,
       -17.74022222209018
      ],
      [
       177.42999999999995,
       -17.740222222090175
      ]
     ]
    ]
   },
   "bbox": [
    177.4295555555555,
    -17.740666666534615,
    177.43022222222217,
    -17.73977777764574
   ]
  },
  {
   "id": "0",
   "type": "Feature",
   "properties": {
    "kind": "lost since earlier year"
   },
   "geometry": {
    "type": "Polygon",
    "coordinates": [
     [
      [
       177.42666666666662,
       -17.733555555423557
      ],
      [
       177.42666666666662,
       -17.73377777764578
      ],
      [
       177.42622222222218,
       -17.733777777645777
      ],
      [
       177.42622222222218,
       -17.73422222209022
      ],
      [
       177.42599999999996,
       -17.734222222090217
      ],
      [
       177.42599999999996,
       -17.733555555423557
      ],
      [
       177.42577777777774,
       -17.733555555423557
      ],
      [
       177.42577777777774,
       -17.733333333201337
      ],
      [
       177.4264444444444,
       -17.733333333201337
      ],
      [
       177.4264444444444,
       -17.733555555423553
      ],
      [
       177.42666666666662,
       -17.733555555423557
      ]
     ]
    ]
   },
   "bbox": [
    177.42577777777774,
    -17.73422222209022,
    177.42666666666662,
    -17.733333333201337
   ]
  },
  {
   "id": "0",
   "type": "Feature",
   "properties": {
    "kind": "lost since earlier year"
   },
   "geometry": {
    "type": "Polygon",
    "coordinates": [
     [
      [
       177.4313333333333,
       -17.731777777645796
      ],
      [
       177.4313333333333,
       -17.731555555423572
      ],
      [
       177.4315555555555,
       -17.73155555542357
      ],
      [
       177.4315555555555,
       -17.73177777764579
      ],
      [
       177.43199999999993,
       -17.73177777764579
      ],
      [
       177.43088888888883,
       -17.731777777645792
      ],
      [
       177.43088888888883,
       -17.731555555423565
      ],
      [
       177.4306666666666,
       -17.731555555423565
      ],
      [
       177.4306666666666,
       -17.731111110979136
      ],
      [
       177.43088888888883,
       -17.73111111097913
      ],
      [
       177.43088888888883,
       -17.731333333201345
      ],
      [
       177.43111111111105,
       -17.731333333201345
      ],
      [
       177.43111111111105,
       -17.731777777645792
      ],
      [
       177.4313333333333,
       -17.731777777645796
      ]
     ]
    ]
   },
   "bbox": [
    177.4306666666666,
    -17.731777777645796,
    177.43199999999993,
    -17.73111111097913
   ]
  },
  {
   "id": "0",
   "type": "Feature",
   "properties": {
    "kind": "lost since earlier year"
   },
   "geometry": {
    "type": "Polygon",
    "coordinates": [
     [
      [
       177.4304444444444,
       -17.73111111097913
      ],
      [
       177.4304444444444,
       -17.730888888756905
      ],
      [
       177.43022222222217,
       -17.730888888756912
      ],
      [
       177.43022222222217,
       -17.72977777764581
      ],
      [
       177.4304444444444,
       -17.7297777776458
      ],
      [
       177.4304444444444,
       -17.730444444312464
      ],
      [
       177.4306666666666,
       -17.730444444312464
      ],
      [
       177.4306666666666,
       -17.731111110979136
      ],
      [
       177.4304444444444,
       -17.73111111097913
      ]
     ]
    ]
   },
   "bbox": [
    177.43022222222217,
    -17.731111110979136,
    177.4306666666666,
    -17.7297777776458
   ]
  },
  {
   "id": "0",
   "type": "Feature",
   "properties": {
    "kind": "lost since earlier year"
   },
   "geometry": {
    "type": "Polygon",
    "coordinates": [
     [
      [
       177.42533333333327,
       -17.72799999986804
      ],
      [
       177.4255555555555,
       -17.727999999868032
      ],
      [
       177.4255555555555,
       -17.727555555926852
      ],
      [
       177.42577777777774,
       -17.727555555423596
      ],
      [
       177.42577777778766,
       -17.72822222221608
      ],
      [
       177.4255555555555,
       -17.728222222090267
      ],
      [
       177.4255555555555,
       -17.728444444312476
      ],
      [
       177.42533333333327,
       -17.72844444431248
      ],
      [
       177.42533333333327,
       -17.72799999986804
      ]
     ]
    ]
   },
   "bbox": [
    177.42533333333327,
    -17.72844444431248,
    177.42577777778766,
    -17.727555555423596
   ]
  },
  {
   "id": "0",
   "type": "Feature",
   "properties": {
    "kind": "lost since earlier year"
   },
   "geometry": {
    "type": "Polygon",
    "coordinates": [
     [
      [
       177.4264444444444,
       -17.727777777645816
      ],
      [
       177.42666666666662,
       -17.727777777645816
      ],
      [
       177.42666666666662,
       -17.72799999986804
      ],
      [
       177.42777777777772,
       -17.72799999986804
      ],
      [
       177.42599999999996,
       -17.727999999868032
      ],
      [
       177.42599999999996,
       -17.727333333201372
      ],
      [
       177.42622222222218,
       -17.72733333332719
      ],
      [
       177.42622222222218,
       -17.7275555554236
      ],
      [
       177.4264444444444,
       -17.72755555542361
      ],
      [
       177.4264444444444,
       -17.727777777645816
      ]
     ]
    ]
   },
   "bbox": [
    177.42599999999996,
    -17.72799999986804,
    177.42777777777772,
    -17.727333333201372
   ]
  },
  {
   "id": "0",
   "type": "Feature",
   "properties": {
    "kind": "lost since earlier year"
   },
   "geometry": {
    "type": "Polygon",
    "coordinates": [
     [
      [
       177.4286666666666,
       -17.723555555423626
      ],
      [
       177.42911111111107,
       -17.723555555423633
      ],
      [
       177.42911111111107,
       -17.72377777764585
      ],
      [
       177.4293333333333,
       -17.723777777645857
      ],
      [
       177.4286666666666,
       -17.72377777764585
      ],
      [
       177.4286666666666,
       -17.724444444312507
      ],
      [
       177.4286666666666,
       -17.724222222090287
      ],
      [
       177.4284444444938,
       -17.724222222090283
      ],
      [
       177.42844444444438,
       -17.723111110979175
      ],
      [
       177.42888888888882,
       -17.723111111482325
      ],
      [
       177.42888888888882,
       -17.723333333201413
      ],
      [
       177.4286666666666,
       -17.723333333201413
      ],
      [
       177.4286666666666,
       -17.723555555423626
      ]
     ]
    ]
   },
   "bbox": [
    177.42844444444438,
    -17.724444444312507,
    177.4293333333333,
    -17.723111110979175
   ]
  },
  {
   "id": "0",
   "type": "Feature",
   "properties": {
    "kind": "lost since earlier year"
   },
   "geometry": {
    "type": "Polygon",
    "coordinates": [
     [
      [
       177.43533333333326,
       -17.750666666534546
      ],
      [
       177.43488888888882,
       -17.750666666534546
      ],
      [
       177.43488888888882,
       -17.751111110978982
      ],
      [
       177.43444444444438,
       -17.751111110978986
      ],
      [
       177.43444444444438,
       -17.750666666534542
      ],
      [
       177.4346666666666,
       -17.750666666534542
      ],
      [
       177.4346666666666,
       -17.750444444312325
      ],
      [
       177.43533333333326,
       -17.75044444431233
      ],
      [
       177.43533333333326,
       -17.750666666534546
      ]
     ]
    ]
   },
   "bbox": [
    177.43444444444438,
    -17.751111110978986,
    177.43533333333326,
    -17.750444444312325
   ]
  },
  {
   "id": "0",
   "type": "Feature",
   "properties": {
    "kind": "lost since earlier year"
   },
   "geometry": {
    "type": "Polygon",
    "coordinates": [
     [
      [
       177.43666666687284,
       -17.750666666534542
      ],
      [
       177.4366666666666,
       -17.749111110978994
      ],
      [
       177.4364444444444,
       -17.749111110978994
      ],
      [
       177.43644444447386,
       -17.748444444312344
      ],
      [
       177.4366666666666,
       -17.74844444431235
      ],
      [
       177.4366666666666,
       -17.748666666534557
      ],
      [
       177.43688888888883,
       -17.748666666534557
      ],
      [
       177.43688888888883,
       -17.75066666653455
      ],
      [
       177.43666666687284,
       -17.750666666534542
      ]
     ]
    ]
   },
   "bbox": [
    177.4364444444444,
    -17.75066666653455,
    177.43688888888883,
    -17.748444444312344
   ]
  },
  {
   "id": "0",
   "type": "Feature",
   "properties": {
    "kind": "lost since earlier year"
   },
   "geometry": {
    "type": "Polygon",
    "coordinates": [
     [
      [
       177.4335555555555,
       -17.749555555423445
      ],
      [
       177.43333333333328,
       -17.749555555423434
      ],
      [
       177.43333333333328,
       -17.748444444312348
      ],
      [
       177.4335555555555,
       -17.74844444443829
      ],
      [
       177.4335555555555,
       -17.748888888756788
      ],
      [
       177.43377777777772,
       -17.74888888875677
      ],
      [
       177.43377777777772,
       -17.749111110978994
      ],
      [
       177.4335555555555,
       -17.749111110978994
      ],
      [
       177.4335555555555,
       -17.749555555423445
      ]
     ]
    ]
   },
   "bbox": [
    177.43333333333328,
    -17.749555555423445,
    177.43377777777772,
    -17.748444444312348
   ]
  },
  {
   "id": "0",
   "type": "Feature",
   "properties": {
    "kind": "lost since earlier year"
   },
   "geometry": {
    "type": "Polygon",
    "coordinates": [
     [
      [
       177.4346666666666,
       -17.748666666534557
      ],
      [
       177.4346666666666,
       -17.747999999867893
      ],
      [
       177.43488888888882,
       -17.747999999867886
      ],
      [
       177.43488888888882,
       -17.748222222090114
      ],
      [
       177.43511111111104,
       -17.74822222209011
      ],
      [
       177.43511111111104,
       -17.748666666534557
      ],
      [
       177.4346666666666,
       -17.748666666534557
      ]
     ]
    ]
   },
   "bbox": [
    177.4346666666666,
    -17.748666666534557,
    177.43511111111104,
    -17.747999999867886
   ]
  },
  {
   "id": "0",
   "type": "Feature",
   "properties": {
    "kind": "lost since earlier year"
   },
   "geometry": {
    "type": "Polygon",
    "coordinates": [
     [
      [
       177.43399999999994,
       -17.744222222090148
      ],
      [
       177.43399999999994,
       -17.74466666653458
      ],
      [
       177.43422222222216,
       -17.74466666653458
      ],
      [
       177.43422222222216,
       -17.7448888887568
      ],
      [
       177.4335555555555,
       -17.7448888887568
      ],
      [
       177.4335555555555,
       -17.744444444312368
      ],
      [
       177.43333333333328,
       -17.744444444312364
      ],
      [
       177.43333333333328,
       -17.744222222090148
      ],
      [
       177.43399999999994,
       -17.744222222090148
      ]
     ]
    ]
   },
   "bbox": [
    177.43333333333328,
    -17.7448888887568,
    177.43422222222216,
    -17.744222222090148
   ]
  },
  {
   "id": "0",
   "type": "Feature",
   "properties": {
    "kind": "lost since earlier year"
   },
   "geometry": {
    "type": "Polygon",
    "coordinates": [
     [
      [
       177.4369999999478,
       -17.727111111073512
      ],
      [
       177.4366666666666,
       -17.727111110979155
      ],
      [
       177.4366666666666,
       -17.726888888756935
      ],
      [
       177.43622222222217,
       -17.72688888875694
      ],
      [
       177.43622222230078,
       -17.726444444312495
      ],
      [
       177.4364444444444,
       -17.726444444312488
      ],
      [
       177.4364444444444,
       -17.726666666534715
      ],
      [
       177.43688888888883,
       -17.72666666653472
      ],
      [
       177.43688888888883,
       -17.72711111097916
      ],
      [
       177.4369999999478,
       -17.727111111073512
      ]
     ]
    ]
   },
   "bbox": [
    177.43622222222217,
    -17.727111111073512,
    177.4369999999478,
    -17.726444444312488
   ]
  },
  {
   "id": "0",
   "type": "Feature",
   "properties": {
    "kind": "lost since earlier year"
   },
   "geometry": {
    "type": "Polygon",
    "coordinates": [
     [
      [
       177.43733333333327,
       -17.72644444431249
      ],
      [
       177.4384444444444,
       -17.72644444431249
      ],
      [
       177.4384444444444,
       -17.72688888875694
      ],
      [
       177.4384444444444,
       -17.72666666653471
      ],
      [
       177.4373333333431,
       -17.72666666653472
      ],
      [
       177.43733333333327,
       -17.72644444431249
      ]
     ]
    ]
   },
   "bbox": [
    177.43733333333327,
    -17.72688888875694,
    177.4384444444444,
    -17.72644444431249
   ]
  }
 ],
 "bbox": [
  177.42533333333327,
  -17.751111110978986,
  177.4384444444444,
  -17.723111110979175
 ]
}