{"type":"FeatureCollection","features":[{"id":"2","type":"Feature","properties":{"waterway":"river"},"geometry":{"type":"LineString","coordinates":[[177.38,-17.839817151086866],[177.3804056,-17.83942789986736],[177.3804906,-17.839235899867358],[177.3804367,-17.838622899867357],[177.3805139,-17.838340899867354],[177.3815015,-17.837736299867345],[177.3816383,-17.83758819986735],[177.3816611,-17.837424799867364],[177.3815913,-17.836998399867365],[177.3812158,-17.83669579986738],[177.3804781,-17.836652199867363],[177.38,-17.836513814051575]]}},{"id":"11","type":"Feature","properties":{"waterway":"stream"},"geometry":{"type":"LineString","coordinates":[[177.4092051,-17.83817329986737],[177.4087059,-17.838167099867356],[177.4086254,-17.83810579986736],[177.4086705,-17.838035299867357],[177.4089797,-17.837857499867354],[177.4090892,-17.83766739986736],[177.4090344,-17.83742519986737],[177.4088637,-17.837225899867363],[177.4081713,-17.83714919986735]]}},{"id":"2","type":"Feature","properties":{"waterway":"river"},"geometry":{"type":"LineString","coordinates":[[177.38,-17.83536534736737],[177.3805957,-17.83549059986738],[177.38089,-17.835493199867383],[177.381197,-17.83542659986738],[177.3814491,-17.83505819986738],[177.38143310000004,-17.834873299867393],[177.3814804,-17.834749799867375],[177.3816294,-17.834694899867387],[177.3825552,-17.835242599867385],[177.3830892,-17.835739599867363],[177.3833949,-17.83611899986737],[177.3837036,-17.83636039986737],[177.3840729,-17.83651409986737],[177.384362,-17.836554999867367],[177.3848789,-17.836450099867374],[177.384994,-17.83635799986737],[177.3850708,-17.83619929986738],[177.3850605,-17.835994699867374],[177.3845693,-17.83483819986738],[177.3844669,-17.834029599867385],[177.3843339,-17.833865899867398],[177.3834844,-17.83334139986739],[177.382832,-17.8326249998674],[177.3826657,-17.832353699867397],[177.3825812,-17.832028799867402],[177.38253010000003,-17.8308671998674],[177.3824277,-17.83067529986741],[177.3822998,-17.83056529986741],[177.38205670000002,-17.83052429986741],[177.3814887,-17.83057549986741],[177.38,-17.83034318127828]]}},{"id":"5","type":"Feature","properties":{"waterway":"river"},"geometry":{"type":"LineString","coordinates":[[177.4821328,-17.850588599867283],[177.48145,-17.85092079986728],[177.4808583,-17.85097849986728],[177.480312,-17.85109409986728],[177.4800086,-17.850992999867284],[177.47970510000002,-17.85079079986729],[177.4795989,-17.850400799867277],[177.4795989,-17.84973649986729],[177.4798872,-17.849043199867292],[177.47982650000003,-17.84840779986729],[177.4790223,-17.848292199867302],[177.4785368,-17.8481333998673],[177.4779299,-17.848032299867295],[177.47756570000004,-17.8481477998673],[177.4772016,-17.8483788998673],[177.4769588,-17.848754399867303],[177.4767768,-17.84921659986729],[177.4766705,-17.84964979986729],[177.4762457,-17.849851999867283],[177.4760029,-17.849823099867287],[177.4755629,-17.84954869986729],[177.4754112,-17.849129899867293],[177.4749257,-17.8484510998673],[177.474607,-17.848393299867293],[177.4743036,-17.848234499867303],[177.474076,-17.8480322998673],[177.4737422,-17.84731009986731],[177.4740305,-17.847050199867304],[177.4746222,-17.846717999867295],[177.4748043,-17.84647239986731],[177.4748953,-17.846212499867313],[177.4747891,-17.845808099867313],[177.4745919,-17.84554809986731],[177.4743794,-17.845403699867315],[177.4735753,-17.845186999867316],[177.4730291,-17.84495599986732],[177.472847,-17.84458039986732],[177.4724828,-17.844074899867323],[177.4724221,-17.84382939986732],[177.4727256,-17.843453899867324],[177.4731504,-17.843309499867335],[177.47359050000003,-17.84339609986733],[177.473985,-17.843381699867326],[177.4742884,-17.84326609986734],[177.4744857,-17.84309279986733],[177.4745312,-17.842890599867328],[177.4743188,-17.84274619986734],[177.4741063,-17.842471799867333],[177.4728622,-17.841590699867332],[177.4717697,-17.840550799867348],[177.471618,-17.84049299986734],[177.4713145,-17.84066639986735],[177.4708593,-17.841114099867333],[177.4706773,-17.84121519986733],[177.4703435,-17.84117189986734],[177.4677944,-17.838832099867364],[177.4673089,-17.83812429986736],[177.4669447,-17.83774879986737],[177.4666716,-17.837705499867365],[177.4658675,-17.838138799867362],[177.465473,-17.83842759986736],[177.4649874,-17.838355399867368],[177.4644564,-17.83816769986736],[177.4639102,-17.837835499867364],[177.4635005,-17.837416599867367],[177.463455,-17.837113299867365],[177.4640316,-17.836607799867366],[177.4641074,-17.83620329986738],[177.4640771,-17.83545229986739],[177.463804,-17.835192299867376],[177.4631364,-17.834773399867387],[177.4627419,-17.83423899986739],[177.4624384,-17.8335312998674],[177.4622715,-17.832679099867395],[177.4620287,-17.832043499867396],[177.4608453,-17.82966029986741],[177.460648,-17.829313599867422],[177.4604204,-17.829140299867422],[177.4600563,-17.82921249986742],[177.4597528,-17.829356899867417],[177.4590852,-17.82954469986741],[177.4587362,-17.82950139986741],[177.4584631,-17.828663599867415],[177.4582355,-17.82830249986743],[177.4580534,-17.827854799867424],[177.4575679,-17.827724799867433],[177.4572341,-17.82769589986743],[177.4568851,-17.82830249986743],[177.4567031,-17.82873579986742],[177.4566727,-17.829963599867416],[177.4564603,-17.830237999867407],[177.45609610000002,-17.830353599867408],[177.4554741,-17.830136899867405],[177.4546547,-17.828952499867412],[177.4542602,-17.82867809986742],[177.4530464,-17.828143599867428],[177.4522574,-17.827652499867426],[177.4516505,-17.827089199867427],[177.45134700000003,-17.826886999867433],[177.4509525,-17.826915899867434],[177.4507249,-17.827089199867427],[177.4505732,-17.827276999867436],[177.4504822,-17.827565899867423],[177.4504822,-17.827926999867415],[177.4503153,-17.82825919986743],[177.449587,-17.828808099867416],[177.4491166,-17.828981399867406],[177.4478725,-17.829024699867418],[177.4471593,-17.82919809986742],[177.4461276,-17.829255799867422],[177.4456724,-17.829198099867416],[177.4453234,-17.829082499867415],[177.4450655,-17.82856249986743],[177.4450655,-17.82828809986742],[177.4453689,-17.82742139986743],[177.4457634,-17.826020299867437],[177.4456724,-17.825659199867427],[177.4452172,-17.824965899867443],[177.44497440000004,-17.82438809986745],[177.4446558,-17.823882499867455],[177.4438365,-17.823015899867453],[177.443533,-17.82292919986746],[177.44310820000004,-17.822958099867453],[177.4426682,-17.823088099867448],[177.4411357,-17.82369479986745],[177.4404681,-17.823868099867454],[177.4400584,-17.82343469986745],[177.439937,-17.823160299867464],[177.4399977,-17.822972499867458],[177.4406805,-17.822380299867454],[177.4411357,-17.82213469986745],[177.441515,-17.821788099867458],[177.4417426,-17.82148469986747],[177.4419247,-17.820964699867474],[177.4420461,-17.82004019986748],[177.4420006,-17.81978019986748],[177.4415454,-17.81949129986748],[177.4403467,-17.81931799986748],[177.4395729,-17.81882689986749],[177.4390267,-17.81863909986748],[177.4382984,-17.817497899867483],[177.4380556,-17.817223399867494],[177.4378128,-17.81715119986749],[177.4370239,-17.817093399867492],[177.4360073,-17.817252299867494],[177.43561280000003,-17.81738229986749],[177.4349755,-17.817497899867494],[177.4342776,-17.817570099867496],[177.4339134,-17.817570099867496],[177.4334582,-17.817281199867487],[177.4332913,-17.81702119986749],[177.4333824,-17.81684789986749],[177.4335796,-17.816660099867498],[177.4343686,-17.816154499867505],[177.4345962,-17.8158799998675],[177.4347479,-17.815331099867496],[177.4352335,-17.814941099867514],[177.4351879,-17.814767799867514],[177.4352031,-17.8144643998675],[177.435021,-17.81424769986751],[177.4335493,-17.813640999867513],[177.4332458,-17.813366599867518],[177.4325175,-17.81290429986751],[177.4317892,-17.81261539986751],[177.4307726,-17.812427599867522],[177.4301505,-17.811994199867517],[177.42961950000003,-17.81143089986752],[177.4291491,-17.810015199867532],[177.4289064,-17.809509599867532],[177.4287243,-17.809278399867534],[177.4282531,-17.80931189986755],[177.4269615,-17.80964949986754],[177.426726,-17.809795099867536],[177.4260635,-17.80991729986754],[177.42560420000004,-17.80994699986755],[177.4252311,-17.809790699867534],[177.4246286,-17.810147599867538],[177.4244654,-17.810525499867538],[177.4240731,-17.810804999867525],[177.4236307,-17.810944899867525],[177.4235111,-17.811177999867528],[177.423279,-17.81136999986752],[177.4222,-17.81161859986753],[177.4220786,-17.811633099867525],[177.4217599,-17.811329699867535],[177.4203445,-17.810600299867538],[177.4197246,-17.810368499867536],[177.4192711,-17.810282299867524],[177.4188077,-17.81030999986753],[177.4179819,-17.810462999867536],[177.4175571,-17.81069409986753],[177.4172536,-17.811271999867518],[177.4170715,-17.811344199867527],[177.4167377,-17.81131529986754],[177.41638880000002,-17.81083859986753],[177.4162674,-17.81041969986753],[177.4162674,-17.810145199867545],[177.4161763,-17.80998629986754],[177.4159943,-17.809899599867535],[177.4158425,-17.809914099867544],[177.4155391,-17.809971799867526],[177.4150839,-17.810159599867525],[177.4148563,-17.81002959986755],[177.4145528,-17.809740699867543],[177.4146135,-17.809350699867544],[177.4147349,-17.80916289986754],[177.4149473,-17.80903289986754],[177.4150232,-17.80888839986753],[177.4149929,-17.80859949986755],[177.4148715,-17.808454999867553],[177.4144618,-17.808339499867547],[177.4143252,-17.808454999867553],[177.4140218,-17.808960599867547],[177.4137183,-17.809090699867532],[177.41343,-17.809379599867533],[177.4133694,-17.809755199867542],[177.4131418,-17.81011629986753],[177.4128383,-17.810419699867534],[177.4129597,-17.810867499867523],[177.4122921,-17.81138749986753],[177.4113969,-17.811661999867525],[177.4103196,-17.81210979986753],[177.4098341,-17.81249979986752],[177.409652,-17.812832099867524],[177.4095306,-17.81342429986752],[177.4094092,-17.813640999867513],[177.4090754,-17.813896699867513],[177.4087422,-17.81383349986752],[177.4084768,-17.81366969986751],[177.4083471,-17.813337699867517],[177.4083471,-17.813120999867525],[177.4086809,-17.81270209986752],[177.4093334,-17.81215309986753],[177.4097127,-17.811416399867525],[177.4103044,-17.809653999867546],[177.4105472,-17.809278399867527],[177.4106079,-17.80871509986755],[177.4105472,-17.80845499986755],[177.4101831,-17.807819399867544],[177.4098492,-17.807472699867557],[177.4094295,-17.80714219986756]]}},{"id":"10","type":"Feature","properties":{"waterway":"stream"},"geometry":{"type":"LineString","coordinates":[[177.4065125,-17.837915699867363],[177.4066478,-17.838004599867364],[177.4067895,-17.837998499867368],[177.4070826,-17.83756929986736],[177.4072243,-17.837449699867364],[177.4074595,-17.83740679986736],[177.4077848,-17.83720749986737],[177.4080295,-17.837210499867364],[177.4081713,-17.83714919986735],[177.4082067,-17.83674139986737],[177.4081423,-17.836612699867374],[177.40792,-17.836517599867374],[177.4079072,-17.836453199867364],[177.40799730000003,-17.836413399867375],[177.4080875,-17.83623859986737],[177.4083355,-17.83620179986738],[177.4084354,-17.836103699867376],[177.4083033,-17.835947399867376],[177.4082131,-17.835689799867367],[177.4079458,-17.835373999867382],[177.407511,-17.83516249986738],[177.4073403,-17.835036699867373],[177.4072469,-17.834864999867378],[177.4072791,-17.834763899867372],[177.4076334,-17.83450329986739],[177.4086834,-17.834101599867385],[177.4087864,-17.833969799867383],[177.4087607,-17.83376429986739],[177.40880900000002,-17.833402499867383],[177.4086415,-17.832639099867393],[177.407978,-17.8320718998674],[177.407978,-17.831832699867398],[177.407759,-17.831734599867392],[177.4075786,-17.831473999867402],[177.4071599,-17.831243999867404],[177.4069635,-17.83096809986742],[177.4069796,-17.830713599867398],[177.4072243,-17.83050509986741],[177.4083645,-17.830281299867405],[177.4085674,-17.830054399867407],[177.4085771,-17.829931699867405],[177.4084676,-17.82979679986742],[177.4081938,-17.829689499867403],[177.4080585,-17.829551499867417],[177.4080907,-17.829318499867412],[177.4085513,-17.82928479986742],[177.4085964,-17.829171299867426],[177.4085481,-17.829039499867424],[177.4080618,-17.828895399867417],[177.4079716,-17.828763599867422],[177.408007,-17.82859489986742],[177.408168,-17.828463099867417],[177.4081906,-17.82823309986743],[177.4079394,-17.828039899867427],[177.4076334,-17.828116599867425],[177.4074079,-17.828088999867425],[177.4074079,-17.828000099867435],[177.40755930000003,-17.827877399867415],[177.4074917,-17.82735309986744],[177.4076463,-17.826804299867433],[177.4076012,-17.826681599867438],[177.4073757,-17.82663559986743],[177.4072211,-17.82646389986743],[177.4073113,-17.82633209986744],[177.4078363,-17.82616649986743],[177.4090312,-17.825896699867442],[177.4098944,-17.82588749986744],[177.4108252,-17.82561459986743],[177.4111247,-17.825329499867436],[177.4115286,-17.824417999867453],[177.4117528,-17.82352949986746],[177.4117043,-17.822335199867464],[177.4115892,-17.821775499867464],[177.4118195,-17.82117549986747],[177.4128073,-17.82028119986747],[177.4128922,-17.81991769986747],[177.4126316,-17.819594599867475],[177.4115346,-17.81935799986747],[177.4112195,-17.819421499867484],[177.4110074,-17.819340699867485],[177.4110862,-17.818405999867483],[177.4108437,-17.81807139986748],[177.4101581,-17.817511899867476],[177.4100713,-17.817170699867486],[177.4101769,-17.816624799867494],[177.4101015,-17.816265699867486],[177.4099242,-17.816086099867512],[177.4097922,-17.816078899867506],[177.4096526,-17.816193899867496],[177.4095847,-17.816423699867492],[177.4094602,-17.816527899867502],[177.4090414,-17.816567999867505],[177.4087931,-17.816691199867495],[177.4085602,-17.816898099867487],[177.4082497,-17.817415299867488],[177.407991,-17.817410399867487],[177.4070544,-17.816917799867493],[177.4069975,-17.8166615998675],[177.4070648,-17.816489199867494],[177.4083672,-17.815640999867494],[177.40855590000004,-17.815436299867496],[177.4086426,-17.815184899867496],[177.408703,-17.81467139986752],[177.4088161,-17.8145707998675],[177.4089821,-17.814549299867508],[177.4092273,-17.81459239986751],[177.4094461,-17.814710899867514],[177.40968,-17.815069999867493],[177.4099252,-17.815123899867515],[177.4102835,-17.8150017998675],[177.41042690000003,-17.814789899867506],[177.41042690000003,-17.814606699867504],[177.4103175,-17.814495399867504],[177.4099893,-17.814452299867515],[177.4096423,-17.81419729986752],[177.4090754,-17.813896699867513]]}},{"id":"2","type":"Feature","properties":{"waterway":"river"},"geometry":{"type":"LineString","coordinates":[[177.38,-17.827703529569554],[177.3804115,-17.827579399867435],[177.3806955,-17.827574199867428],[177.38180600000004,-17.827801999867418],[177.3822537,-17.827842899867427],[177.3835126,-17.827827499867425],[177.3841292,-17.82778149986742],[177.38438510000003,-17.827620299867423],[177.3846025,-17.827198099867427],[177.3851644,-17.825330799867444],[177.385167,-17.825023799867438],[177.385012,-17.82449969986744],[177.3848906,-17.823503899867443],[177.3849879,-17.823066399867454],[177.3851874,-17.822580299867454],[177.3854228,-17.82218879986746],[177.3855098,-17.82179479986747],[177.3854945,-17.82154659986747],[177.3853691,-17.821267699867473],[177.3850262,-17.820801999867466],[177.384558,-17.820459199867475],[177.3840207,-17.82018279986747],[177.3831456,-17.819947399867473],[177.3826851,-17.81992699986747],[177.3822578,-17.82001399986747],[177.381984,-17.82019559986748],[177.3818305,-17.820441299867472],[177.3812676,-17.82188939986746],[177.3809964,-17.82214789986746],[177.3806382,-17.82214789986746],[177.3804565,-17.821955999867473],[177.3802774,-17.821543999867465],[177.3802237,-17.821070699867466],[177.3802723,-17.820633199867476],[177.38039,-17.82025189986747],[177.3806535,-17.81993469986748],[177.381196,-17.819566199867484],[177.3813188,-17.81934869986749],[177.3813469,-17.819026299867478],[177.3812574,-17.818921399867477],[177.3810348,-17.81882419986748],[177.3808403,-17.81883959986748],[177.38,-17.819461663146278]]}},{"id":"6","type":"Feature","properties":{"waterway":"river"},"geometry":{"type":"LineString","coordinates":[[177.4240731,-17.810804999867525],[177.4241111,-17.81091339986752],[177.4240352,-17.811122799867537],[177.4237697,-17.811274499867523],[177.4236786,-17.81139729986753],[177.4237014,-17.81155619986752],[177.423838,-17.81177289986753],[177.4238683,-17.81200399986753],[177.4237924,-17.812473499867526],[177.4236559,-17.812827399867526],[177.4235269,-17.81302239986752],[177.4234966,-17.813166899867518],[177.4235573,-17.81330409986752],[177.4239214,-17.813390799867523],[177.4239062,-17.81350629986753],[177.42402,-17.813730199867507],[177.4241718,-17.813809699867512],[177.4243462,-17.813802499867514],[177.4245435,-17.81369409986751],[177.42481660000004,-17.81328239986752],[177.4249456,-17.81323189986752],[177.4250366,-17.813260799867518],[177.425378,-17.813824099867514],[177.4256132,-17.814055299867512],[177.4259166,-17.814264699867497],[177.4260228,-17.814611399867506],[177.425947,-17.814748599867514],[177.4256739,-17.81497249986751],[177.4254463,-17.815311999867497],[177.4254111,-17.815444999867506],[177.4254387,-17.815810399867495],[177.4252718,-17.816308699867495],[177.4253477,-17.816727599867505],[177.425287,-17.81718989986749],[177.4253021,-17.817428199867486],[177.4252263,-17.81787599986748],[177.4251504,-17.818034899867488],[177.4250897,-17.81812159986748],[177.4249759,-17.81800599986749],[177.42481660000004,-17.817969899867485],[177.4241262,-17.818417699867492],[177.4236007,-17.81897529986749],[177.423454,-17.81943689986748],[177.423454,-17.81956439986747],[177.423824,-17.819704099867483],[177.4239771,-17.81961909986748],[177.4240983,-17.819455099867472],[177.4242705,-17.81933369986749],[177.4246469,-17.81923649986748],[177.4248893,-17.819278999867482],[177.4256804,-17.819248599867485],[177.4259101,-17.819285099867482],[177.4261589,-17.81937009986749],[177.4263949,-17.819594799867474],[177.4264204,-17.820469399867466],[177.4260376,-17.820870199867482],[177.4257952,-17.82101599986747],[177.4250425,-17.821234599867466],[177.4250042,-17.821489699867467],[177.4255082,-17.82162329986746],[177.4256166,-17.821750799867466],[177.4261397,-17.82194519986746],[177.4266373,-17.822424999867465],[177.426548,-17.822686099867457],[177.42658630000003,-17.822789399867457],[177.4264523,-17.822928999867457],[177.42555920000004,-17.823238799867454],[177.4254316,-17.82340279986745],[177.4254316,-17.823590999867452],[177.4255209,-17.82373069986745],[177.4262354,-17.824070799867442],[177.4267202,-17.824216599867444],[177.4269754,-17.824416999867452],[177.4269627,-17.82518829986744],[177.4267968,-17.825746999867434],[177.426682,-17.82586849986744],[177.4264714,-17.82639679986744],[177.4264268,-17.826706599867432],[177.4264842,-17.82688879986743],[177.4266245,-17.827040599867434],[177.42719870000002,-17.82720459986743],[177.4272625,-17.827265299867427],[177.4272051,-17.827429299867433],[177.4273773,-17.82763569986742],[177.4279706,-17.827538599867427],[177.4286022,-17.827696499867425],[177.4287234,-17.827805799867427],[177.42882540000002,-17.82817019986743],[177.4290423,-17.828607399867415],[177.4291508,-17.82872889986743],[177.4293996,-17.828789599867413],[177.430012,-17.829238999867414],[177.4305989,-17.829548699867406],[177.43065630000004,-17.82968839986741],[177.4306436,-17.830107499867417],[177.4306882,-17.830307899867417],[177.4309051,-17.830775499867404],[177.4316005,-17.831473899867404],[177.4320088,-17.831643899867398]]}},{"id":"7","type":"Feature","properties":{"waterway":"canal"},"geometry":{"type":"LineString","coordinates":[[177.38,-17.816993712488856],[177.3803412,-17.816962999867485],[177.3814615,-17.817236599867492]]}},{"id":"3","type":"Feature","properties":{"waterway":"river"},"geometry":{"type":"LineString","coordinates":[[177.49265290000002,-17.784088799867696],[177.49216180000002,-17.78451979986769],[177.4911918,-17.785098799867693],[177.4905903,-17.78560629986769],[177.49034220000001,-17.78565139986768],[177.4900377,-17.785595099867685],[177.4898008,-17.785418399867694],[177.48953770000003,-17.785106299867692],[177.4894061,-17.784869499867696],[177.4885189,-17.7843919998677],[177.4881918,-17.784053699867712],[177.4878985,-17.7835272998677],[177.4875264,-17.782703999867714],[177.4871767,-17.782316799867704],[177.4866391,-17.78185439986771],[177.4847218,-17.78140699986772],[177.4838346,-17.78128669986772],[177.48307510000004,-17.781079899867713],[177.4824285,-17.780974699867723],[177.4818721,-17.780677699867713],[177.4813157,-17.780256599867727],[177.4810977,-17.779967099867726],[177.48073300000001,-17.778884399867724],[177.4804773,-17.77862879986774],[177.4801691,-17.778602399867733],[177.4798946,-17.778775399867733],[177.4796089,-17.779264099867724],[177.4790224,-17.779933299867725],[177.4782931,-17.780504699867727],[177.4776201,-17.780696499867723],[177.4766464,-17.78107619986771],[177.475199,-17.782034799867716],[177.4749509,-17.782343099867713],[177.4748193,-17.782756699867708],[177.4746163,-17.783102499867706],[177.474308,-17.7833769998677],[177.4740336,-17.7834972998677],[177.4737817,-17.783542399867702],[177.4735336,-17.783497299867697],[177.4733456,-17.783297999867692],[177.4725825,-17.78282429986771],[177.4722817,-17.782722799867706],[177.4709772,-17.782636299867708],[177.4706388,-17.782688999867702],[177.4687816,-17.78377919986771],[177.46810120000004,-17.784463499867694],[177.4676951,-17.784711599867702],[177.4673756,-17.784737899867697],[177.4663004,-17.784459699867693],[177.4652026,-17.7840686998677],[177.4649206,-17.7838280998677],[177.46468,-17.7837077998677],[177.4642627,-17.7837227998677],[177.4638793,-17.783617599867707],[177.4631762,-17.783072399867702],[177.4621612,-17.782406999867703],[177.4614206,-17.78171529986771],[177.46091680000004,-17.781170199867713],[177.46071,-17.78068139986773],[177.4606988,-17.780079899867722],[177.460413,-17.779294199867735],[177.4602138,-17.778350499867734],[177.4601273,-17.776951999867745],[177.4601837,-17.77590689986775],[177.4604694,-17.77490689986776],[177.4604957,-17.774681299867762],[177.460319,-17.77382409986776],[177.4602551,-17.773211299867764],[177.4603153,-17.772944399867765],[177.4605258,-17.772545899867772],[177.4607627,-17.77231279986777],[177.4611837,-17.77206469986778],[177.4621349,-17.771636099867774],[177.4622213,-17.77155719986778],[177.4622702,-17.771278999867782],[177.4621123,-17.77055719986778],[177.4619507,-17.77027899986778],[177.46148820000002,-17.769861699867786],[177.46113860000003,-17.769151099867784],[177.4609506,-17.7686059998678],[177.4608792,-17.7681021998678],[177.4604243,-17.7674480998678],[177.4600333,-17.76716609986781],[177.4595709,-17.766985699867803],[177.4589243,-17.766639799867804],[177.458413,-17.76622999986781],[177.4581611,-17.765914199867808],[177.4579017,-17.765775099867806],[177.4576423,-17.765775099867806],[177.4571724,-17.76594049986781],[177.4560746,-17.7666359998678],[177.45442040000003,-17.767790199867807],[177.4541009,-17.7682074998678],[177.4539242,-17.768609799867793],[177.4539054,-17.76895939986779],[177.4541272,-17.769654899867792],[177.4541272,-17.76983909986778],[177.4537851,-17.77016989986778],[177.453537,-17.770301499867777],[177.4513489,-17.770895499867777],[177.451082,-17.77107219986779],[177.4507249,-17.77142559986778],[177.4502625,-17.77219249986777],[177.4499504,-17.772309099867773],[177.449567,-17.77233159986777],[177.4491609,-17.77226019986777],[177.4488075,-17.772139899867767],[177.4483714,-17.771741399867775],[177.4481609,-17.771703799867787],[177.4474353,-17.771910599867773],[177.4471872,-17.772023399867777],[177.4469955,-17.77229399986776],[177.4469015,-17.772606099867772],[177.446394,-17.773030899867766],[177.4457173,-17.77344439986776],[177.4453902,-17.773910599867772],[177.4452248,-17.774444499867762],[177.44524360000003,-17.77487299986776],[177.4456007,-17.776027199867745],[177.4467173,-17.776812899867735],[177.4471834,-17.77692189986774],[177.4476158,-17.777173799867747],[177.4480218,-17.77798589986774],[177.4483113,-17.77844829986774],[177.4487699,-17.778820499867734],[177.4493715,-17.77913249986773],[177.4499692,-17.779346799867735],[177.4503339,-17.77937689986772],[177.4512474,-17.77920769986773],[177.451379,-17.779267899867722],[177.451567,-17.779534799867733],[177.4515482,-17.779801699867733],[177.451379,-17.779869399867724],[177.4510895,-17.77986559986772],[177.4508076,-17.780064899867725],[177.45027000000002,-17.780700199867717],[177.4499128,-17.780906999867717],[177.4496045,-17.780929499867725],[177.4491609,-17.78079799986773],[177.4484354,-17.78030549986772],[177.44767970000004,-17.780173899867723],[177.4473413,-17.779989699867727],[177.4470744,-17.779906999867723],[177.4458676,-17.78007239986773],[177.44548790000002,-17.78000469986772],[177.4444259,-17.779525099867737],[177.4442414,-17.779489499867736],[177.4439426,-17.779756599867728],[177.44367960000002,-17.78032799986772],[177.44313070000004,-17.781271699867716],[177.44298040000004,-17.781643799867712],[177.4430631,-17.78221899986771],[177.4432435,-17.782719099867695],[177.4432729,-17.783009699867698],[177.4430576,-17.783610499867706],[177.4427094,-17.784096899867702],[177.4412925,-17.785535099867694],[177.4404152,-17.78602429986769],[177.4388521,-17.786667599867677],[177.4375096,-17.786853699867677],[177.4366909,-17.787369399867675],[177.4360954,-17.787900999867674],[177.4357897,-17.788071199867673],[177.434535,-17.78841409986767],[177.4342053,-17.78861349986767],[177.433974,-17.788865999867667],[177.43335200000004,-17.790165999867668],[177.43287610000002,-17.790862399867656],[177.4325066,-17.791237299867646],[177.4317836,-17.79184869986765],[177.4316613,-17.792141099867642],[177.4317463,-17.792396299867637],[177.4319218,-17.792502599867646],[177.432294,-17.792515899867652],[177.4331898,-17.792919999867642],[177.4335354,-17.792848199867645],[177.4337614,-17.792858899867642],[177.4344951,-17.79321509986765],[177.4348114,-17.793414499867644],[177.4360608,-17.79465859986764],[177.4361193,-17.794855299867642],[177.43586680000004,-17.79533109986762],[177.4356834,-17.79542419986762],[177.4354574,-17.795450799867623],[177.4353006,-17.795365699867627],[177.434955,-17.794996199867622],[177.4346679,-17.794903099867632],[177.4344393,-17.79491109986763],[177.4341654,-17.795025399867647],[177.4333201,-17.795666099867628],[177.4324003,-17.79608609986763],[177.4319457,-17.796354599867616],[177.4317357,-17.796654999867613],[177.4316294,-17.79702179986761],[177.4313689,-17.797367399867625],[177.4305102,-17.798808299867602],[177.42935910000003,-17.800469699867588],[177.4285749,-17.801937099867587],[177.4283383,-17.80266549986758],[177.4280167,-17.80297119986758],[177.4275462,-17.80304299986757],[177.4268842,-17.803040299867586],[177.4265998,-17.803003099867578],[177.42629940000003,-17.80286219986758],[177.4260628,-17.802521999867583],[177.4250925,-17.80153309986759],[177.4240451,-17.800368699867597],[177.42361180000003,-17.7996615998676],[177.4222215,-17.797936299867608],[177.4209242,-17.797465799867624],[177.4201825,-17.797423299867614],[177.4188188,-17.797665199867623],[177.4170483,-17.79832709986761],[177.4167373,-17.7986274998676],[177.4166735,-17.798973099867606],[177.4161711,-17.79950739986761],[177.4153576,-17.8000750998676],[177.4141562,-17.800785599867595],[177.4135992,-17.801074499867592],[177.4128614,-17.801317699867596],[177.4116277,-17.80150459986758],[177.4112321,-17.801542299867595],[177.4105622,-17.801296799867586],[177.4100959,-17.800771799867597],[177.4099682,-17.800337399867594],[177.40963040000003,-17.799770399867597],[177.4092772,-17.799370899867597],[177.4087541,-17.799256799867603],[177.4083901,-17.799401899867608],[177.4081399,-17.799885399867595],[177.40766700000003,-17.800286299867608],[177.4073852,-17.800857799867597],[177.4069253,-17.802171099867586],[177.4060747,-17.80334869986758],[177.4058381,-17.803864399867578],[177.4058221,-17.804167499867567],[177.4059364,-17.80457419986757],[177.40608,-17.80481879986757],[177.4063139,-17.80496499986757],[177.4066914,-17.80504469986756],[177.4075208,-17.805119199867573],[177.4077574,-17.805238799867567],[177.4082864,-17.80577579986756],[177.4086958,-17.80590339986756],[177.4089218,-17.805855499867558],[177.4091696,-17.805757299867565],[177.4094048,-17.80533459986756],[177.4092951,-17.804562099867567],[177.4085283,-17.803832499867575],[177.4083901,-17.803361999867573],[177.4084379,-17.802886199867586],[177.4085203,-17.80271069986758],[177.4087224,-17.802511299867586],[177.4089962,-17.80237309986759],[177.409286,-17.80234919986758],[177.4097033,-17.80243159986759],[177.41074270000001,-17.802872899867577],[177.4108464,-17.80297919986758],[177.4108969,-17.80314929986758],[177.4109588,-17.803849399867577],[177.4104976,-17.804260299867575],[177.4101207,-17.80452369986757],[177.4094295,-17.80714219986756],[177.4092332,-17.807410599867563],[177.4084805,-17.807832699867543],[177.4076511,-17.80796029986754],[177.4069174,-17.807933799867556],[177.4062369,-17.807593499867547],[177.4057797,-17.80721599986756],[177.4052693,-17.806450399867565],[177.404594,-17.805833699867556],[177.4039241,-17.805748599867567],[177.4029778,-17.805987799867562],[177.4014678,-17.806971399867546],[177.4003779,-17.807168099867564],[177.3997984,-17.80706709986756],[177.3987563,-17.805923999867556],[177.3982193,-17.805737999867567],[177.3976664,-17.80582299986756],[177.3970496,-17.806173899867563],[177.3967785,-17.80660989986756],[177.3965499,-17.80738079986756],[177.3964435,-17.80952339986754],[177.3963106,-17.810001899867533],[177.395981,-17.81048049986754],[177.39494420000003,-17.811362999867534],[177.3933598,-17.81220839986753],[177.39247200000003,-17.81276129986752],[177.3913289,-17.81408519986751],[177.3908025,-17.81457959986751],[177.3904516,-17.81476039986752],[177.3901858,-17.814659399867505],[177.38998370000002,-17.814356299867505],[177.3899625,-17.81398419986752],[177.39002630000002,-17.813500299867513],[177.3899359,-17.812410399867513],[177.3897817,-17.811591599867533],[177.3895318,-17.810788799867534],[177.3890959,-17.81024119986753],[177.38843660000003,-17.80981589986753],[177.38757,-17.80950219986754],[177.3871659,-17.809273599867538],[177.3866555,-17.808752499867552],[177.3836607,-17.804923099867572],[177.382687,-17.80305089986758],[177.382405,-17.802141099867587],[177.3824539,-17.800825299867594],[177.3823411,-17.8002500998676],[177.3819952,-17.79975389986759],[177.3812321,-17.79917109986761],[177.38,-17.798796281495065]]}},{"id":"9","type":"Feature","properties":{"waterway":"stream"},"geometry":{"type":"LineString","coordinates":[[177.4477379,-17.787553099867672],[177.4473553,-17.787497899867674],[177.4472212,-17.787610199867675],[177.4472729,-17.78798069986768],[177.4472018,-17.78804839986768],[177.44695960000004,-17.787980699867685],[177.4468482,-17.787843899867674],[177.44694830000003,-17.78738869986768],[177.4468869,-17.78729799986768],[177.4466108,-17.78727189986769],[177.4464364,-17.787487099867683],[177.4464445,-17.78783769986768],[177.4463879,-17.787989999867673],[177.4461586,-17.788019199867673],[177.445897,-17.787437899867676],[177.44536660000003,-17.78728939986768],[177.4452314,-17.787457399867677],[177.4452167,-17.788123499867684],[177.444429,-17.788128999867677],[177.4441116,-17.787930299867675],[177.444573,-17.787448999867667],[177.4444995,-17.787169099867675],[177.4437177,-17.786732499867675],[177.4437618,-17.786474999867686],[177.4439981,-17.786268699867694],[177.4440191,-17.786171799867684],[177.4437751,-17.785848099867685],[177.443716,-17.785683499867687],[177.443998,-17.785542699867694],[177.44411040000003,-17.785343599867698],[177.4439999,-17.78521599986769],[177.4431916,-17.785195299867688],[177.4430831,-17.785358699867697],[177.4432054,-17.785762299867688],[177.4432251,-17.786004499867683],[177.4430871,-17.786073999867682],[177.4429727,-17.785963199867687],[177.4427144,-17.785307999867694],[177.4421736,-17.784658099867695]]}},{"id":"14","type":"Feature","properties":{"waterway":"river"},"geometry":{"type":"LineString","coordinates":[[177.52,-17.82530484248682],[177.5195831,-17.824960599867442],[177.5192733,-17.824446699867444],[177.5189155,-17.824124399867447],[177.518462,-17.82402699986745],[177.5177082,-17.82418819986745],[177.51727700000004,-17.824373699867444],[177.51714920000003,-17.82475079986744],[177.5173345,-17.825112599867445],[177.5177114,-17.825374099867442],[177.5180372,-17.82590319986744],[177.5181873,-17.827168199867433],[177.5181617,-17.827657699867423],[177.51789660000003,-17.828056099867418],[177.5170981,-17.828551699867422],[177.5167116,-17.828560799867414],[177.51652,-17.828405799867422],[177.5161143,-17.828357099867432],[177.515632,-17.82844529986741],[177.5147126,-17.82905599986743],[177.5142569,-17.829260099867415],[177.5128715,-17.82923489986741],[177.5126274,-17.829055099867425],[177.5125806,-17.828802599867426],[177.5127249,-17.827959899867427],[177.512643,-17.827907899867427],[177.5124558,-17.82793389986743],[177.5119879,-17.827714799867433],[177.5111455,-17.827581199867428],[177.5105995,-17.827666599867428],[177.5093087,-17.82849079986744],[177.5087861,-17.828512999867424],[177.5084039,-17.828323699867425],[177.50763560000001,-17.826979699867422],[177.5071442,-17.826593599867444],[177.5064451,-17.82646159986744],[177.505813,-17.826539099867436],[177.5042959,-17.82692869986743],[177.5033124,-17.82706529986743],[177.5028368,-17.82700209986743],[177.5023868,-17.82676139986743],[177.5017011,-17.826167799867427],[177.5011483,-17.825943399867437],[177.500452,-17.825429399867442],[177.5002334,-17.82517029986744],[177.4993935,-17.824717499867436],[177.4992799,-17.824523699867456],[177.4992242,-17.823387499867444],[177.4990656,-17.823159099867457],[177.4987957,-17.822977499867452],[177.4984593,-17.82290199986746],[177.4979964,-17.82298769986746],[177.4975893,-17.823183499867454],[177.4971351,-17.823611899867448],[177.4956352,-17.824376799867444],[177.4950995,-17.824509399867445],[177.4944931,-17.82433199986744],[177.494131,-17.82410759986745],[177.49378610000002,-17.823513999867455],[177.4934347,-17.823183499867454],[177.4931368,-17.822818399867455],[177.4930254,-17.822557299867466],[177.4930511,-17.822363499867457],[177.4932011,-17.822188099867464],[177.4934711,-17.822124899867465],[177.4938482,-17.822169699867462],[177.4944246,-17.82267769986745],[177.4948403,-17.822767399867452],[177.4953202,-17.82267769986745],[177.4956588,-17.822526699867463],[177.4959459,-17.82204119986746],[177.4960637,-17.82172299986746],[177.4960916,-17.821414999867464],[177.4958109,-17.82071939986746],[177.495678,-17.820550099867475],[177.4950802,-17.82023589986748],[177.4949345,-17.82024609986747],[177.4943453,-17.82056229986747],[177.4935889,-17.820647999867486],[177.4931711,-17.820588799867476],[177.4929161,-17.820443999867468],[177.4922755,-17.819552599867485],[177.492044,-17.81944039986748],[177.4917848,-17.819454699867478],[177.4915898,-17.81958519986748],[177.4913605,-17.81990339986747],[177.490992,-17.821270099867455],[177.4907606,-17.82137619986746],[177.4904692,-17.82126809986746],[177.4901263,-17.82095799986747],[177.4896721,-17.819925899867478],[177.4889393,-17.81927509986748],[177.4888664,-17.818965099867484],[177.4889693,-17.818657099867483],[177.4891664,-17.818430599867483],[177.4895714,-17.81822869986749],[177.4899914,-17.818147099867492],[177.4907713,-17.81813479986748],[177.491187,-17.818069599867485],[177.4915427,-17.817877799867496],[177.4917119,-17.817624899867486],[177.4917205,-17.817127099867495],[177.4916155,-17.816825199867495],[177.491322,-17.8165987998675],[177.48933350000001,-17.815725699867503],[177.4889714,-17.815250399867494],[177.488965,-17.814752599867496],[177.4890893,-17.814285499867516],[177.48924360000004,-17.814091699867515],[177.489565,-17.81395909986751],[177.4902142,-17.813903999867517],[177.4904263,-17.81397339986751],[177.4907092,-17.814197799867504],[177.4911184,-17.81524429986751],[177.49138620000002,-17.8154890998675],[177.4931454,-17.816221399867494],[177.4936661,-17.8163009998675],[177.4938461,-17.816239799867507],[177.4939639,-17.816049999867502],[177.4940025,-17.815878699867497],[177.4939318,-17.815715499867505],[177.49374110000002,-17.815570699867507],[177.4933725,-17.815482899867504],[177.4929804,-17.81528299986751],[177.4927319,-17.815042299867503],[177.4925861,-17.814781199867493],[177.4925647,-17.814579199867502],[177.49268260000002,-17.814277299867516],[177.4929525,-17.813954999867516],[177.493199,-17.813761199867503],[177.4939875,-17.813300199867506],[177.4941846,-17.813034999867515],[177.4942724,-17.81285549986752],[177.4943103,-17.812496999867523],[177.4942656,-17.812019499867525],[177.4943071,-17.81149039986753],[177.4943965,-17.811253199867533],[177.494553,-17.81100379986753],[177.4948118,-17.810809199867535],[177.4952046,-17.810651099867524],[177.4957189,-17.81065409986753],[177.4961852,-17.810803099867535],[177.4964184,-17.81104639986753],[177.49644400000003,-17.81126839986753],[177.496329,-17.811539099867527],[177.4959584,-17.811876599867524],[177.4956199,-17.812092499867525],[177.4953995,-17.812399699867523],[177.4953771,-17.813178199867515],[177.495096,-17.814014399867517],[177.4951344,-17.814239499867497],[177.495342,-17.814406699867508],[177.4956678,-17.81443709986751],[177.4964855,-17.81411779986751],[177.4976705,-17.81378329986752],[177.4980155,-17.813561299867516],[177.4984083,-17.81319639986753],[177.4990599,-17.812268899867515],[177.4991845,-17.811943499867525],[177.4991717,-17.811776299867535],[177.4990599,-17.811645499867524],[177.4987757,-17.81151779986753],[177.4982167,-17.81108599986753],[177.4980761,-17.81086399986753],[177.4981017,-17.810660199867538],[177.4983221,-17.81041999986754],[177.4987757,-17.810203999867532],[177.4998329,-17.80943769986754],[177.5000182,-17.809230899867536],[177.5000757,-17.808948099867543],[177.4999575,-17.80866529986755],[177.49966360000002,-17.808406799867544],[177.4990759,-17.80816049986755],[177.4979963,-17.807555299867555],[177.4977248,-17.807257199867554],[177.4976545,-17.80670069986756],[177.4979452,-17.80576409986757],[177.4984626,-17.804581099867573],[177.4991813,-17.803872499867573],[177.4993219,-17.803510599867575],[177.4991749,-17.803066599867584],[177.4986735,-17.802303199867584],[177.4986735,-17.801892699867587],[177.4989322,-17.80159769986758],[177.499587,-17.801329999867587],[177.5008423,-17.80121749986759],[177.5013597,-17.801317899867588],[177.5024649,-17.80184399986759],[177.5028322,-17.80185009986759],[177.5030175,-17.801634199867582],[177.5031165,-17.801092799867593],[177.5031165,-17.799675599867594],[177.503268,-17.79930979986759],[177.5040121,-17.79875069986761]]}},{"id":"29","type":"Feature","properties":{"waterway":"stream"},"geometry":{"type":"LineString","coordinates":[[177.517401,-17.811055799867525],[177.516433,-17.810678899867536],[177.5161487,-17.810380799867534],[177.515357,-17.81003139986754],[177.5152563,-17.809822399867546],[177.5144502,-17.809257099867548],[177.5140543,-17.808791099867538],[177.5136585,-17.808445099867544],[177.5132051,-17.808273799867546],[177.5131043,-17.80807849986755],[177.5132339,-17.806954699867564]]}},{"id":"18","type":"Feature","properties":{"waterway":"stream"},"geometry":{"type":"LineString","coordinates":[[177.5120637,-17.803720999867572],[177.5109475,-17.803322499867576],[177.5108603,-17.802984899867578],[177.5099708,-17.80208259986759],[177.5080698,-17.800820599867585],[177.5072058,-17.799323999867603],[177.5052654,-17.798424599867612],[177.5047239,-17.798269099867607],[177.5041908,-17.79822919986761]]}},{"id":"15","type":"Feature","properties":{"waterway":"river"},"geometry":{"type":"LineString","coordinates":[[177.5040121,-17.79875069986761],[177.5041692,-17.79840759986761]]}},{"id":"16","type":"Feature","properties":{"waterway":"river"},"geometry":{"type":"LineString","coordinates":[[177.5041692,-17.79840759986761],[177.5041908,-17.79822919986761],[177.5040697,-17.79812899986761],[177.5033986,-17.79804809986761]]}},{"id":"17","type":"Feature","properties":{"waterway":"river"},"geometry":{"type":"LineString","coordinates":[[177.5033986,-17.79804809986761],[177.503097,-17.798106499867608]]}},{"id":"27","type":"Feature","properties":{"waterway":"stream"},"geometry":{"type":"LineString","coordinates":[[177.4916626,-17.795814299867626],[177.4919789,-17.795458099867624],[177.49238200000002,-17.795248899867627],[177.4924762,-17.795085699867634],[177.4927393,-17.795032799867627],[177.4933162,-17.79531329986763],[177.4936928,-17.79506499986763],[177.4941828,-17.795106399867635],[177.49465890000002,-17.794900499867634]]}},{"id":"26","type":"Feature","properties":{"waterway":"stream"},"geometry":{"type":"LineString","coordinates":[[177.4951692,-17.7988273998676],[177.4953472,-17.79840569986761],[177.49536300000003,-17.7982456998676],[177.4953096,-17.79801429986761],[177.4951648,-17.79789939986762],[177.4949982,-17.797398299867613],[177.4948606,-17.797308699867614],[177.4948365,-17.79710639986762],[177.4949451,-17.796936399867626],[177.49492340000003,-17.79674789986762],[177.495061,-17.79632269986763],[177.4950578,-17.79569319986763],[177.4947483,-17.795473899867634],[177.4947699,-17.795124399867618],[177.4941777,-17.793930099867634],[177.4930118,-17.792893499867645],[177.4930838,-17.792215099867647],[177.4936056,-17.791516099867646],[177.49374590000002,-17.79088559986766],[177.4939844,-17.79071849986765],[177.4946796,-17.79078749986766],[177.4950756,-17.79072329986764]]}},{"id":"13","type":"Feature","properties":{"waterway":"river"},"geometry":{"type":"LineString","coordinates":[[177.503097,-17.798106499867608],[177.5024914,-17.798053999867616],[177.50221860000002,-17.797924899867613],[177.5020004,-17.79761499986761],[177.5017153,-17.796649799867623],[177.50154110000003,-17.796400199867623],[177.501381,-17.796318099867612],[177.5011504,-17.79631639986762],[177.5009586,-17.79637999986762],[177.50067,-17.796601199867624],[177.5004817,-17.796835799867623],[177.5003673,-17.79718769986761],[177.5003427,-17.79766189986762],[177.5004747,-17.798213099867613],[177.500751,-17.798652599867605],[177.50116420000003,-17.79906429986761],[177.5013404,-17.799405899867597],[177.5012923,-17.799655999867596],[177.5010489,-17.79983589986761],[177.5005781,-17.799875599867605],[177.5001228,-17.7997354998676],[177.4995787,-17.79936929986761],[177.4992873,-17.799009399867604],[177.4991912,-17.798741099867613],[177.4993769,-17.79705459986762],[177.4993065,-17.79652389986763],[177.4990727,-17.795883499867625],[177.4991175,-17.795596799867628],[177.4994026,-17.79530099986763],[177.5005845,-17.794508099867635],[177.5011098,-17.794090199867636],[177.5012347,-17.79379139986764],[177.5012283,-17.793376599867646],[177.5008599,-17.792870299867634],[177.5000928,-17.792417399867652],[177.4989029,-17.792672099867637],[177.4983936,-17.79290079986765],[177.49792280000003,-17.79344669986764],[177.49769860000004,-17.79360839986764],[177.4974552,-17.793617499867633],[177.4963277,-17.79278189986764],[177.49627,-17.79222679986765],[177.49594010000004,-17.79190959986765],[177.4956999,-17.79119789986766],[177.49530910000001,-17.790793299867655],[177.495212,-17.790815799867648],[177.4950756,-17.79072329986764],[177.494745,-17.79040859986765],[177.4945535,-17.79013629986766],[177.4944827,-17.789849099867666],[177.49458500000003,-17.78959429986767],[177.4944486,-17.789144599867665],[177.4943148,-17.789004799867676],[177.4940656,-17.78819539986767],[177.4941034,-17.787806699867687],[177.4944095,-17.787605799867688],[177.49502460000002,-17.787623799867678],[177.4955995,-17.787282099867678],[177.4955853,-17.787075699867675]]}},{"id":"28","type":"Feature","properties":{"waterway":"stream"},"geometry":{"type":"LineString","coordinates":[[177.4916722,-17.793669399867632],[177.4922258,-17.793247699867642],[177.4930118,-17.792893499867645]]}},{"id":"23","type":"Feature","properties":{"waterway":"stream"},"geometry":{"type":"LineString","coordinates":[[177.4878994,-17.803357399867565],[177.487687,-17.803256299867584],[177.4876194,-17.803139099867575],[177.4878149,-17.80229559986759],[177.488148,-17.801599099867584],[177.4880973,-17.8012612998676],[177.487477,-17.80047289986759],[177.4870014,-17.79973509986759],[177.4865741,-17.798882399867615]]}},{"id":"25","type":"Feature","properties":{"waterway":"stream"},"geometry":{"type":"LineString","coordinates":[[177.4865741,-17.798882399867615],[177.4865138,-17.798749099867603]]}},{"id":"22","type":"Feature","properties":{"waterway":"stream"},"geometry":{"type":"LineString","coordinates":[[177.4913718,-17.79851629986761],[177.4909368,-17.798499599867604],[177.4901899,-17.797926499867614],[177.4896187,-17.797846999867613],[177.4893595,-17.79812729986761],[177.4876371,-17.798227699867617],[177.4871108,-17.798175999867606],[177.4870831,-17.798290799867612],[177.4863516,-17.798383099867614]]}},{"id":"24","type":"Feature","properties":{"waterway":"stream"},"geometry":{"type":"LineString","coordinates":[[177.4865138,-17.798749099867603],[177.4861155,-17.797728599867607],[177.4859175,-17.797587699867613]]}},{"id":"19","type":"Feature","properties":{"waterway":"stream"},"geometry":{"type":"LineString","coordinates":[[177.4859175,-17.797587699867613],[177.4857171,-17.79764749986762],[177.4852633,-17.797394599867616],[177.4851546,-17.79723599986762],[177.4853719,-17.796854499867607],[177.4852753,-17.796675199867618],[177.4853647,-17.796516599867623],[177.4850412,-17.79598109986762],[177.4846356,-17.795631699867627],[177.4843484,-17.795735099867624],[177.4842953,-17.795670799867626],[177.4843822,-17.795507599867626],[177.48416010000003,-17.79521799986763],[177.483868,-17.79524559986763],[177.4839066,-17.795116799867625],[177.4838294,-17.795040999867634],[177.4834021,-17.79503409986763],[177.4831896,-17.795086999867635],[177.4828106,-17.79499729986763],[177.4825306,-17.795148999867624],[177.4816616,-17.795040999867634],[177.481845,-17.794643299867634],[177.4815505,-17.794452599867633],[177.4814226,-17.794280199867643],[177.4810388,-17.79416989986764],[177.480877,-17.794022699867632],[177.4804087,-17.793896299867647],[177.4801384,-17.793691799867638],[177.47944550000003,-17.793556099867644],[177.4792766,-17.79339529986763],[177.4790086,-17.793333199867643],[177.4788469,-17.79318839986764],[177.4786996,-17.793146999867652],[177.4786682,-17.793043599867644],[177.4787382,-17.79283209986764],[177.4785982,-17.79261149986765],[177.4786658,-17.792406899867647],[177.4784894,-17.79210029986765],[177.4785591,-17.791853599867657],[177.4786287,-17.791855099867647],[177.4787016,-17.791983099867654],[177.4787809,-17.792003099867646],[177.4788457,-17.791953799867645],[177.4788263,-17.791813499867644],[177.4789218,-17.791711699867644],[177.4789299,-17.791583699867648],[177.4783939,-17.791531299867646],[177.4782902,-17.79146649986765],[177.4783469,-17.791352399867655],[177.4782724,-17.791213699867654],[177.4780328,-17.79109799986766],[177.4779097,-17.79121829986767],[177.4777235,-17.79121209986765],[177.47767,-17.791361699867654],[177.47756800000002,-17.791427999867654],[177.477398,-17.791266099867656],[177.4775065,-17.791099599867653],[177.4774595,-17.79094229986766],[177.4776263,-17.790669399867653],[177.4778352,-17.79060149986766],[177.477853,-17.790453499867663],[177.477934,-17.790360999867655],[177.4778773,-17.790302399867663],[177.477717,-17.790279299867652],[177.477717,-17.79018979986767],[177.4779032,-17.78997239986766],[177.4777267,-17.789787399867663],[177.4775551,-17.789977099867663],[177.4771713,-17.790006399867664],[177.4769737,-17.78985679986766],[177.4768523,-17.789640899867656],[177.4767988,-17.78942809986766],[177.4768425,-17.78883289986767],[177.4767664,-17.78877429986766],[177.4764652,-17.788903899867663],[177.476428,-17.788840699867674],[177.476449,-17.788632499867678],[177.476347,-17.78831639986768],[177.476096,-17.788162199867674],[177.4756671,-17.78805439986767],[177.47566570000004,-17.78819329986767],[177.4755729,-17.78826779986767],[177.4753023,-17.788174399867675],[177.4751193,-17.78777149986767],[177.4752466,-17.787664199867677],[177.4752307,-17.787603599867673],[177.4747678,-17.78762759986767],[177.4746233,-17.787747499867674],[177.4743713,-17.78746339986768],[177.4746683,-17.787339599867682],[177.4747042,-17.78717419986769],[177.4741161,-17.786685099867686],[177.4743633,-17.786338699867677],[177.4738433,-17.78612599986768],[177.4735329,-17.786257799867684],[177.4728745,-17.785764499867685],[177.47282860000004,-17.7853259998677]]}},{"id":"21","type":"Feature","properties":{"waterway":"stream"},"geometry":{"type":"LineString","coordinates":[[177.47282860000004,-17.7853259998677],[177.4728173,-17.785217599867693]]}},{"id":"20","type":"Feature","properties":{"waterway":"stream"},"geometry":{"type":"LineString","coordinates":[[177.4728173,-17.785217599867693],[177.472647,-17.784606499867692],[177.473096,-17.784142199867706],[177.4729381,-17.7838980998677],[177.4722125,-17.7834499998677],[177.4726514,-17.7832334998677],[177.4730409,-17.783414299867705],[177.4733456,-17.783297999867692]]}},{"id":"33","type":"Feature","properties":{"waterway":"stream"},"geometry":{"type":"LineString","coordinates":[[177.4888144,-17.755925599867876],[177.4887471,-17.755696399867873],[177.4885807,-17.755463499867876],[177.4880024,-17.75508659986788],[177.4878174,-17.754890499867873]]}},{"id":"34","type":"Feature","properties":{"waterway":"stream"},"geometry":{"type":"LineString","coordinates":[[177.47713720000002,-17.745522299867943],[177.477459,-17.746013799867942],[177.4776461,-17.74691499986793],[177.4779924,-17.747546599867928],[177.4779296,-17.747946699867928],[177.4782758,-17.74854899986793],[177.4788041,-17.749268099867912],[177.4791559,-17.74987869986792],[177.4792369,-17.750570099867907],[177.4794904,-17.751300899867907],[177.4796592,-17.7515664998679],[177.4803212,-17.7518233998679],[177.48067040000004,-17.7518179998679],[177.4809325,-17.751624299867895],[177.4819526,-17.752457099867893],[177.4821774,-17.7524043998679],[177.482534,-17.752061999867898],[177.4829337,-17.752203599867904],[177.4832636,-17.752099599867897],[177.4845024,-17.751965899867887],[177.48483600000003,-17.752031999867903],[177.4849694,-17.752176699867896],[177.4853397,-17.752320399867894],[177.4855179,-17.752471299867885],[177.4857232,-17.752785399867896],[177.4857398,-17.75311459986789],[177.4859987,-17.753493399867892],[177.4863204,-17.75347009986789],[177.4864188,-17.75359159986789],[177.4863883,-17.75370439986788],[177.4864203,-17.75375779986789],[177.4865555,-17.753776799867886],[177.4866372,-17.753735899867902],[177.4871727,-17.75405429986789],[177.4876076,-17.753917499867892],[177.4877006,-17.753995299867892],[177.4877292,-17.754123199867877],[177.4876679,-17.754223699867886],[177.4875066,-17.75433099986788],[177.48746980000004,-17.754449599867886],[177.4877238,-17.754528799867877],[177.4878527,-17.754770099867883],[177.4878174,-17.754890499867873]]}},{"id":"32","type":"Feature","properties":{"waterway":"stream"},"geometry":{"type":"LineString","coordinates":[[177.4749837,-17.74699619986794],[177.4748091,-17.747188099867927],[177.4741745,-17.746837599867934],[177.4741131,-17.74695269986794],[177.4741843,-17.747415499867923],[177.473934,-17.747611999867924],[177.4730691,-17.74776859986793],[177.4725966,-17.74770129986792],[177.4723884,-17.747297299867924],[177.472167,-17.747203599867923],[177.4718817,-17.74729159986792],[177.4714141,-17.74716109986793],[177.4710121,-17.747223999867924],[177.4707174,-17.746924399867932],[177.47027360000004,-17.74687339986793],[177.4698311,-17.746944099867935],[177.469378,-17.746908599867925],[177.4689102,-17.746473599867937],[177.468768,-17.746040699867926],[177.4687607,-17.74571689986795],[177.4683972,-17.745527499867936],[177.4681688,-17.745125099867938],[177.467731,-17.745026399867946],[177.4670988,-17.744790599867944],[177.4667872,-17.745023099867943],[177.4663621,-17.745458799867937],[177.4659658,-17.74563509986795],[177.4649776,-17.745630399867938],[177.4647253,-17.745401599867943],[177.4648436,-17.744772699867944],[177.4647401,-17.74458259986794],[177.4643718,-17.74453789986795],[177.4642451,-17.74466889986795],[177.4641017,-17.744977799867936],[177.4639444,-17.745109099867943],[177.4630367,-17.745233099867935],[177.4628199,-17.74537269986795],[177.4627154,-17.745312999867945],[177.4626722,-17.745142299867943],[177.4622994,-17.74507429986794],[177.4619364,-17.744935099867938],[177.4618289,-17.74470089986795],[177.4615843,-17.744513499867946],[177.4615717,-17.744377599867942],[177.4616754,-17.744232199867945],[177.4623976,-17.743731399867947],[177.4625664,-17.743481899867945],[177.4629821,-17.74314989986795],[177.4634201,-17.742982999867955],[177.4634847,-17.742578599867958],[177.4634293,-17.741845199867964],[177.4635286,-17.74161489986796],[177.4634258,-17.741552399867963],[177.4633172,-17.741607399867966],[177.4629753,-17.741919899867966],[177.4628474,-17.741886199867963],[177.4627151,-17.741747399867965],[177.4625537,-17.741736299867963],[177.4623767,-17.741922799867968],[177.4616764,-17.74230849986795],[177.4614639,-17.74264279986796]]}},{"id":"8","type":"Feature","properties":{"waterway":"stream"},"geometry":{"type":"LineString","coordinates":[[177.4482852,-17.784014399867704],[177.44779860000003,-17.784068399867696],[177.4475603,-17.784204899867692],[177.4472929,-17.784516199867692],[177.4470675,-17.784537699867695],[177.4467209,-17.78437959986769],[177.446565,-17.784408499867702],[177.4457632,-17.784912699867697],[177.4458056,-17.7850415998677],[177.4457065,-17.785412599867694],[177.44573390000002,-17.785780699867686],[177.4465069,-17.786410899867686],[177.446692,-17.786858699867683],[177.4468508,-17.78702939986768],[177.4468869,-17.78729799986768]]}},{"id":"1","type":"Feature","properties":{"waterway":"stream"},"geometry":{"type":"LineString","coordinates":[[177.4272328,-17.768931599867784],[177.4266726,-17.768460499867796],[177.4265802,-17.76831289986779],[177.4262553,-17.76809719986779],[177.42614510000004,-17.767926899867803],[177.4259066,-17.767779299867815],[177.4255818,-17.7674245998678],[177.4247999,-17.7667875998678]]}},{"id":"30","type":"Feature","properties":{"waterway":"stream"},"geometry":{"type":"LineString","coordinates":[[177.4563505,-17.731839599868024],[177.45604470000004,-17.73235829986802],[177.4544767,-17.73462329986801],[177.4539349,-17.735024599867995],[177.4534321,-17.735165499868],[177.4514873,-17.735471499867998],[177.4480329,-17.736236599868],[177.4451082,-17.736804899867987],[177.4431005,-17.737273599867997],[177.4425554,-17.737264299867984],[177.4420232,-17.737078799867998],[177.44143640000001,-17.736554599868],[177.4411804,-17.736044199867987],[177.4403271,-17.73360069986801],[177.4400551,-17.732686799868013],[177.4400681,-17.73212819986803],[177.4402104,-17.731803199868015],[177.4404836,-17.73077119986803],[177.4404064,-17.730080299868042],[177.43920220000004,-17.728153799868046],[177.4389375,-17.727920699868047],[177.4384183,-17.72767719986803],[177.4380529,-17.727578299868053],[177.4377628,-17.72759689986805]]}},{"id":"0","type":"Feature","properties":{"waterway":"river"},"geometry":{"type":"LineString","coordinates":[[177.446445197654,-17.72],[177.447247,-17.7209911998681],[177.4473087,-17.721377299868095],[177.4473166,-17.721993399868083],[177.4472382,-17.72257759986808],[177.4471237,-17.722820999868084],[177.4467448,-17.72294689986808],[177.4465421,-17.722896599868072],[177.4462954,-17.722762299868087],[177.44595170000002,-17.72239289986808],[177.4456609,-17.721805399868092],[177.4453878,-17.721570399868096],[177.4451587,-17.72144449986809],[177.4448855,-17.721368899868093],[177.4442423,-17.721477999868092],[177.4438986,-17.721679499868095],[177.4436519,-17.72196489986809],[177.4426347,-17.723556399868077],[177.44233580000002,-17.723947799868082],[177.4418969,-17.724223599868072],[177.4417007,-17.724259199868065],[177.4412431,-17.72417909986808],[177.4409629,-17.72406349986807],[177.4407013,-17.723832199868077],[177.4401783,-17.723565299868074],[177.4399074,-17.723529699868077],[177.4394408,-17.723636899868076],[177.4386092,-17.724481599868064],[177.438357,-17.724979799868073],[177.4382636,-17.72585169986806],[177.4381889,-17.72601179986807],[177.4380768,-17.726109699868054],[177.4379087,-17.72614529986806],[177.4376098,-17.725994099868064],[177.437423,-17.725771599868064],[177.4371241,-17.72561149986806],[177.4366851,-17.725709399868066],[177.4365077,-17.725851699868063],[177.436461,-17.72621649986806],[177.436545,-17.726385499868062],[177.4372736,-17.726803599868052],[177.4375444,-17.727008299868057],[177.4376565,-17.72715949986805],[177.4377628,-17.72759689986805],[177.4376005,-17.72784449986805],[177.4374417,-17.72797799986805],[177.4366758,-17.72816479986805],[177.435966,-17.728253799868046],[177.4354803,-17.72838719986805],[177.43481710000003,-17.728716399868045],[177.4340326,-17.729312399868046],[177.432697,-17.730593499868032],[177.4319778,-17.731047199868023],[177.4314641,-17.73110059986803],[177.4308009,-17.730922699868035],[177.43040870000002,-17.730326599868032],[177.4302125,-17.729534899868046],[177.429979,-17.729045499868054],[177.4295774,-17.728671899868047],[177.4291197,-17.72833379986805],[177.427616,-17.72807579986805],[177.4261029,-17.72815589986805],[177.4253118,-17.728276999868044]]}},{"id":"12","type":"Feature","properties":{"waterway":"river"},"geometry":{"type":"LineString","coordinates":[[177.4957465,-17.78639029986768],[177.4957765,-17.785852299867685],[177.49560250000002,-17.785502399867692],[177.4953898,-17.785330499867698],[177.4950439,-17.78522419986769],[177.494468,-17.784925399867696],[177.4932734,-17.78467989986769],[177.492454,-17.7842599998677]]}},{"id":"4","type":"Feature","properties":{"waterway":"river"},"geometry":{"type":"LineString","coordinates":[[177.52,-17.76952316211864],[177.5195599,-17.7693401998678],[177.5192478,-17.769445099867777],[177.5188667,-17.76943129986778],[177.5186264,-17.76926839986779],[177.5184247,-17.768928699867793],[177.5174912,-17.76826299986779],[177.5167537,-17.768141499867795],[177.5159307,-17.7682077998678],[177.513826,-17.7677906998678],[177.513409,-17.76786529986781],[177.5130609,-17.768240899867802],[177.5127765,-17.76866349986779],[177.512561,-17.769334699867795],[177.5122075,-17.770154999867785],[177.5112076,-17.77151659986778],[177.5107989,-17.772149099867764],[177.5106276,-17.772729199867765],[177.5106055,-17.773524599867763],[177.5108817,-17.774474699867753],[177.5109425,-17.774944299867762],[177.5107436,-17.776228599867753],[177.5104509,-17.77680309986774],[177.5098929,-17.77720629986774],[177.5097079,-17.777222899867738],[177.5087909,-17.77700469986774],[177.50865,-17.776874899867746],[177.508302,-17.77628109986775],[177.5082495,-17.77602969986775],[177.50797890000004,-17.775538099867756],[177.5078104,-17.775380699867746],[177.5062084,-17.775217699867753],[177.50508710000003,-17.775455199867757],[177.5036508,-17.77525089986776],[177.5034105,-17.775388999867747],[177.5033387,-17.77569549986775],[177.50332220000004,-17.777123499867734],[177.5034713,-17.777780799867738],[177.5034575,-17.77798249986774],[177.5033774,-17.778181299867736],[177.5027062,-17.778813799867724],[177.5025101,-17.77881379986773],[177.5021925,-17.77869229986773],[177.501792,-17.778443699867722],[177.5015462,-17.778164799867728],[177.50151860000003,-17.777824999867736],[177.5016429,-17.77739689986774],[177.5020378,-17.776977099867743],[177.50225880000002,-17.776645699867736],[177.5022146,-17.77617059986775],[177.50186660000003,-17.77538899986775],[177.50125340000002,-17.77320969986777],[177.50086120000003,-17.77273469986777],[177.5004856,-17.772386699867774],[177.5001238,-17.77230659986777],[177.4999359,-17.772411499867765],[177.4995631,-17.773430699867752],[177.4993587,-17.77381739986776],[177.4989693,-17.77408809986777],[177.4987262,-17.774123999867765],[177.4981268,-17.77397209986776],[177.4975993,-17.773604699867764],[177.4973756,-17.773538399867764],[177.4968453,-17.773745599867755],[177.496442,-17.77373449986776],[177.49563,-17.77394439986777],[177.4955692,-17.77405769986775],[177.4954926,-17.77455339986776],[177.4955387,-17.77494089986776],[177.49573110000003,-17.775387999867753],[177.4960969,-17.77578089986775],[177.4967499,-17.77621989986775],[177.49755470000002,-17.776469099867743],[177.4978717,-17.776791599867742],[177.498018,-17.77749879986773],[177.4979747,-17.777818599867743],[177.4977823,-17.778000099867736],[177.4972187,-17.778138299867727],[177.4968339,-17.778138299867734],[177.4959804,-17.777826699867735],[177.4954764,-17.777888999867738],[177.4948369,-17.778346999867733],[177.49414050000001,-17.779130099867725],[177.4937422,-17.779780399867725],[177.49355790000004,-17.780777499867714],[177.4930566,-17.782923599867697],[177.4928751,-17.783392399867704],[177.49276940000001,-17.783904499867695],[177.49265290000002,-17.784088799867696]]}},{"id":"0","type":"Feature","properties":{"waterway":"river"},"geometry":{"type":"LineString","coordinates":[[177.49782113082523,-17.72],[177.4991582,-17.720578099868096],[177.499522,-17.7206396998681],[177.5000051,-17.720454799868097],[177.5003746,-17.720562199868088],[177.50133860000003,-17.721065199868097],[177.5017619,-17.721358199868092],[177.5018873,-17.721778799868083],[177.5015421,-17.722687499868083],[177.5012329,-17.723035399868085],[177.5008681,-17.723321499868085],[177.5002244,-17.72360769986808],[177.498554,-17.72358509986808],[177.4983166,-17.72334059986808],[177.4981669,-17.72263079986808],[177.4978171,-17.72224869986809],[177.4975854,-17.722160399868088],[177.497352,-17.72217139986808],[177.4970599,-17.722447599868083],[177.4969283,-17.72281569986807],[177.4966303,-17.72433229986807],[177.4966661,-17.724649099868067],[177.4967445,-17.724785599868067],[177.49715610000004,-17.725017499868066],[177.4971798,-17.725375299868073],[177.4971002,-17.725757399868062],[177.496742,-17.72614619986806],[177.496258,-17.726305199868055],[177.4955895,-17.72638739986806],[177.4950349,-17.72669529986805],[177.4943235,-17.726816599868062],[177.4932935,-17.726612199868065],[177.4928429,-17.72634649986805],[177.4925831,-17.72600509986806],[177.4921563,-17.72583549986806],[177.4917486,-17.72583549986807],[177.4911478,-17.725917299868062],[177.4897813,-17.726498899868062],[177.4893882,-17.72653039986806],[177.488402,-17.725790099868068],[177.4878153,-17.725483799868055],[177.4872942,-17.724917799868063],[177.4869261,-17.724182699868074],[177.4865874,-17.723180799868082],[177.4865885,-17.722840499868077],[177.4866714,-17.722716099868084],[177.48709040000003,-17.72238259986808],[177.4871566,-17.72215649986809],[177.4871859,-17.721970699868084],[177.487115,-17.72148839986809],[177.48693370000004,-17.721322799868087],[177.4867619,-17.721323599868093],[177.4861449,-17.72158559986809],[177.485483,-17.721768099868083],[177.48491240000004,-17.72165789986809],[177.484453,-17.721788599868084],[177.48351630000002,-17.72256599986808],[177.4834001,-17.72338829986808],[177.4829724,-17.723546299868076],[177.4817922,-17.723648499868073],[177.4810198,-17.72340329986808],[177.4795392,-17.72231999986808],[177.4791071,-17.721391699868096],[177.47881729816095,-17.72]]}},{"id":"35","type":"Feature","properties":{"waterway":"stream"},"geometry":{"type":"LineString","coordinates":[[177.4749837,-17.74699619986794],[177.4757487,-17.746697199867928],[177.4758895,-17.74646389986793],[177.475859,-17.746154799867934],[177.4759978,-17.745857099867937],[177.47713720000002,-17.745522299867943],[177.4773401,-17.74512109986793],[177.4777064,-17.744633599867946],[177.4780067,-17.744440299867954],[177.4780671,-17.744316399867948],[177.4777665,-17.743978099867952],[177.4777801,-17.743827399867946],[177.4780466,-17.743684199867957],[177.4780016,-17.742339899867957],[177.4781149,-17.742104799867956],[177.4782983,-17.74213079986797],[177.47837090000002,-17.742072199867966],[177.478396,-17.741917899867957],[177.47856790000003,-17.74164349986796],[177.4788213,-17.741382399867963],[177.4790849,-17.741272599867962],[177.4790333,-17.74089549986797],[177.4792257,-17.74021839986798],[177.4789369,-17.740026699867975],[177.4790102,-17.739836199867966],[177.479558,-17.739165499867983]]}},{"id":"31","type":"Feature","properties":{"waterway":"stream"},"geometry":{"type":"LineString","coordinates":[[177.4614639,-17.74264279986796],[177.4611575,-17.742714899867966],[177.4608547,-17.74104849986797],[177.4614626,-17.739825199867973],[177.4615165,-17.739519299867982],[177.4614093,-17.73927239986799],[177.461506,-17.739175599867984],[177.4617602,-17.739147499867975],[177.4621056,-17.739212999867974],[177.4623806,-17.739083299867982],[177.462414,-17.738727399867987],[177.4622733,-17.738419799867987],[177.4622837,-17.738308199867987],[177.462565,-17.738040499867992],[177.4626773,-17.737782199867997],[177.4627973,-17.73694719986799],[177.4627262,-17.736597999867996],[177.4628137,-17.736534099867985],[177.4629585,-17.736560299867996],[177.4631256,-17.736693299867998],[177.4632787,-17.736696599867994],[177.46353200000001,-17.736564199868],[177.463663,-17.73642829986799],[177.4637956,-17.736097999867994],[177.4641163,-17.735746399868002],[177.4642749,-17.735765799868012],[177.4644974,-17.735954999868],[177.4646654,-17.735955899868003],[177.4647778,-17.735840899867995],[177.46481320000004,-17.735689099867994],[177.4647026,-17.735537999867997],[177.4645454,-17.735502899868003],[177.464309,-17.73513589986801],[177.4642858,-17.734988899868014],[177.4644421,-17.73448129986801],[177.4643752,-17.734161399868015],[177.4641953,-17.733888299868003],[177.4639877,-17.73382329986801],[177.4636965,-17.734024699868012],[177.4638484,-17.73440049986801],[177.4639163,-17.734742699868004],[177.4639131,-17.735015599867996],[177.46374,-17.735083699868003],[177.4635303,-17.735019999868],[177.4628848,-17.73440009986801],[177.4624492,-17.734229799868004],[177.4620847,-17.73419959986801],[177.4618258,-17.734100099868005],[177.461727,-17.734012299868013],[177.461544,-17.73236299986802],[177.4612823,-17.73200089986802],[177.4612176,-17.731750499868024],[177.4612792,-17.731620499868015],[177.4612345,-17.73142969986803],[177.4611254,-17.731369199868038],[177.4604705,-17.731207699868026],[177.460342,-17.73122669986802],[177.4600431,-17.731442699868023],[177.459817,-17.731479499868026],[177.4591953,-17.731403999868032],[177.4590543,-17.73134899986803],[177.4589296,-17.731394399868023],[177.4589121,-17.731562799868026],[177.45896540000004,-17.73180569986802],[177.4592657,-17.732102599868032],[177.4592145,-17.73222299986802],[177.45911,-17.732260699868014],[177.4590028,-17.732266899868016],[177.4580999,-17.731864599868025],[177.4577992,-17.731803799868025],[177.4567853,-17.731313699868032],[177.45664990000003,-17.73135149986803],[177.4563505,-17.731839599868024]]}},{"id":"0","type":"Feature","properties":{"waterway":"river"},"geometry":{"type":"LineString","coordinates":[[177.47490641743525,-17.72],[177.4750334,-17.720223399868097],[177.4752592,-17.72045079986809],[177.4755606,-17.72068529986809],[177.475913,-17.720829599868093],[177.4760368,-17.72105679986809],[177.4759551,-17.72142289986808],[177.4756819,-17.721721499868085],[177.475445,-17.721842899868083],[177.4738781,-17.721745599868083],[177.473616,-17.721658699868087],[177.4732351,-17.72124739986809],[177.4729655,-17.721087999868093],[177.4727123,-17.7210497998681],[177.47253,-17.72117149986808],[177.4724226,-17.721388399868097],[177.4724771,-17.72172149986808],[177.4726253,-17.722176199868084],[177.4728565,-17.722691399868083],[177.4728453,-17.722974299868078],[177.4727176,-17.72319119986808],[177.47243320000004,-17.723349099868088],[177.4722094,-17.72341009986808],[177.4720287,-17.72335359986806],[177.4717526,-17.723150599868084],[177.4715255,-17.723134199868085],[177.47115440000002,-17.72330569986808],[177.47073,-17.723417899868075],[177.4703548,-17.723244499868073],[177.4701819,-17.723097999868074],[177.4698967,-17.72299969986808],[177.4696368,-17.723031799868078],[177.4694127,-17.723269699868084],[177.469276,-17.723576799868077],[177.4690602,-17.72453499986807],[177.469144,-17.724892299868067],[177.4692966,-17.72514399986807],[177.4692998,-17.725359099868072],[177.4691683,-17.72550479986806],[177.4683849,-17.725548199868065],[177.4677409,-17.725514299868074],[177.4668428,-17.725227399868075],[177.466502,-17.725168699868068],[177.4657983,-17.725279299868063],[177.4654424,-17.72507959986807],[177.4644586,-17.72423789986808],[177.46403040000004,-17.723952199868073],[177.4631103,-17.72356979986808],[177.4628188,-17.723239999868085],[177.4622442,-17.722057299868087],[177.46209,-17.721643399868093],[177.462004,-17.721345699868085],[177.4619795,-17.72103879986808],[177.4619681860589,-17.72]]}},{"id":"0","type":"Feature","properties":{"waterway":"river"},"geometry":{"type":"LineString","coordinates":[[177.4551324613027,-17.72],[177.45472260000003,-17.720572499868094],[177.4544865,-17.720794099868094],[177.4541533,-17.720976999868096],[177.4538356,-17.721001999868097],[177.45357490000004,-17.720883299868092],[177.453453,-17.720711799868088],[177.4533138,-17.720328899868097],[177.45284086205146,-17.72]]}}]}