{"type":"FeatureCollection","features":[{"type":"Feature","geometry":{"type":"LineString","coordinates":[[177.405,-17.82999999986741],[177.4083796193341,-17.826996921947146]]},"properties":{"id":"r00001","name":"Queens Rd (test)","low_point_m":99.0}},{"type":"Feature","geometry":{"type":"LineString","coordinates":[[177.4083796193341,-17.826996921947146],[177.411759125966,-17.823993777083068]]},"properties":{"id":"r00002","name":"Queens Rd (test)","low_point_m":99.0}},{"type":"Feature","geometry":{"type":"LineString","coordinates":[[177.411759125966,-17.823993777083068],[177.4151385199158,-17.82099056530659]]},"properties":{"id":"r00003","name":"Queens Rd (test)","low_point_m":99.0}},{"type":"Feature","geometry":{"type":"LineString","coordinates":[[177.4151385199158,-17.82099056530659],[177.41851780120376,-17.817987286649146]]},"properties":{"id":"r00004","name":"Queens Rd (test)","low_point_m":99.0}},{"type":"Feature","geometry":{"type":"LineString","coordinates":[[177.41851780120376,-17.817987286649146],[177.42189696984988,-17.814983941142184]]},"properties":{"id":"r00005","name":"Queens Rd (test)","low_point_m":99.0}},{"type":"Feature","geometry":{"type":"LineString","coordinates":[[177.42189696984988,-17.814983941142184],[177.4252760258744,-17.811980528817127]]},"properties":{"id":"r00006","name":"Queens Rd (test)","low_point_m":99.0}},{"type":"Feature","geometry":{"type":"LineString","coordinates":[[177.4252760258744,-17.811980528817127],[177.42865496929744,-17.808977049705405]]},"properties":{"id":"r00007","name":"Queens Rd (test)","low_point_m":99.0}},{"type":"Feature","geometry":{"type":"LineString","coordinates":[[177.42865496929744,-17.808977049705405],[177.43203380013915,-17.80597350383844]]},"properties":{"id":"r00008","name":"Queens Rd (test)","low_point_m":99.0}},{"type":"Feature","geometry":{"type":"LineString","coordinates":[[177.43203380013915,-17.80597350383844],[177.43541251841967,-17.802969891247677]]},"properties":{"id":"r00009","name":"Queens Rd (test)","low_point_m":99.0}},{"type":"Feature","geometry":{"type":"LineString","coordinates":[[177.43541251841967,-17.802969891247677],[177.43879112415914,-17.79996621196453]]},"properties":{"id":"r00010","name":"Queens Rd (test)","low_point_m":5.75}},{"type":"Feature","geometry":{"type":"LineString","coordinates":[[177.43879112415914,-17.79996621196453],[177.44216961737774,-17.796962466020418]]},"properties":{"id":"r00011","name":"Queens Rd (test)","low_point_m":4.0}},{"type":"Feature","geometry":{"type":"LineString","coordinates":[[177.44216961737774,-17.796962466020418],[177.44554799809558,-17.793958653446783]]},"properties":{"id":"r00012","name":"Queens Rd (test)","low_point_m":2.25}},{"type":"Feature","geometry":{"type":"LineString","coordinates":[[177.44554799809558,-17.793958653446783],[177.44892626633285,-17.79095477427504]]},"properties":{"id":"r00013","name":"Queens Rd (test)","low_point_m":0.75}},{"type":"Feature","geometry":{"type":"LineString","coordinates":[[177.44892626633285,-17.79095477427504],[177.45,-17.789999999867664],[177.45217552819418,-17.787825359886543]]},"properties":{"id":"r00014","name":"Queens Rd (test)","low_point_m":0.25}},{"type":"Feature","geometry":{"type":"LineString","coordinates":[[177.45217552819418,-17.787825359886543],[177.4553646202262,-17.784637423688064]]},"properties":{"id":"r00015","name":"Queens Rd (test)","low_point_m":0.5}},{"type":"Feature","geometry":{"type":"LineString","coordinates":[[177.4553646202262,-17.784637423688064],[177.45855359873678,-17.781449427198325]]},"properties":{"id":"r00016","name":"Queens Rd (test)","low_point_m":2.5}},{"type":"Feature","geometry":{"type":"LineString","coordinates":[[177.45855359873678,-17.781449427198325],[177.46174246375023,-17.77826137044707]]},"properties":{"id":"r00017","name":"Queens Rd (test)","low_point_m":4.75}},{"type":"Feature","geometry":{"type":"LineString","coordinates":[[177.46174246375023,-17.77826137044707],[177.46493121529093,-17.77507325346408]]},"properties":{"id":"r00018","name":"Queens Rd (test)","low_point_m":99.0}},{"type":"Feature","geometry":{"type":"LineString","coordinates":[[177.46493121529093,-17.77507325346408],[177.4681198533832,-17.77188507627911]]},"properties":{"id":"r00019","name":"Queens Rd (test)","low_point_m":99.0}},{"type":"Feature","geometry":{"type":"LineString","coordinates":[[177.4681198533832,-17.77188507627911],[177.4713083780514,-17.768696838921922]]},"properties":{"id":"r00020","name":"Queens Rd (test)","low_point_m":99.0}},{"type":"Feature","geometry":{"type":"LineString","coordinates":[[177.4713083780514,-17.768696838921922],[177.4744967893199,-17.765508541422278]]},"properties":{"id":"r00021","name":"Queens Rd (test)","low_point_m":99.0}},{"type":"Feature","geometry":{"type":"LineString","coordinates":[[177.4744967893199,-17.765508541422278],[177.477685087213,-17.762320183809962]]},"properties":{"id":"r00022","name":"Queens Rd (test)","low_point_m":99.0}},{"type":"Feature","geometry":{"type":"LineString","coordinates":[[177.477685087213,-17.762320183809962],[177.4808732717551,-17.7591317661147]]},"properties":{"id":"r00023","name":"Queens Rd (test)","low_point_m":99.0}},{"type":"Feature","geometry":{"type":"LineString","coordinates":[[177.4808732717551,-17.7591317661147],[177.4840613429705,-17.755943288366268]]},"properties":{"id":"r00024","name":"Queens Rd (test)","low_point_m":99.0}},{"type":"Feature","geometry":{"type":"LineString","coordinates":[[177.4840613429705,-17.755943288366268],[177.48724930088363,-17.75275475059442]]},"properties":{"id":"r00025","name":"Queens Rd (test)","low_point_m":99.0}},{"type":"Feature","geometry":{"type":"LineString","coordinates":[[177.48724930088363,-17.75275475059442],[177.4904371455188,-17.74956615282891]]},"properties":{"id":"r00026","name":"Queens Rd (test)","low_point_m":99.0}},{"type":"Feature","geometry":{"type":"LineString","coordinates":[[177.4904371455188,-17.74956615282891],[177.49362487690036,-17.746377495099498]]},"properties":{"id":"r00027","name":"Queens Rd (test)","low_point_m":99.0}},{"type":"Feature","geometry":{"type":"LineString","coordinates":[[177.49362487690036,-17.746377495099498],[177.49681249505264,-17.74318877743593]]},"properties":{"id":"r00028","name":"Queens Rd (test)","low_point_m":99.0}},{"type":"Feature","geometry":{"type":"LineString","coordinates":[[177.49681249505264,-17.74318877743593],[177.5,-17.739999999867972]]},"properties":{"id":"r00029","name":"Queens Rd (test)","low_point_m":99.0}},{"type":"Feature","geometry":{"type":"LineString","coordinates":[[177.42,-17.849999999867283],[177.42000010345097,-17.845555580934594]]},"properties":{"id":"r00030","name":"Cross Rd (test)","low_point_m":99.0}},{"type":"Feature","geometry":{"type":"LineString","coordinates":[[177.42000010345097,-17.845555580934594],[177.42000019894095,-17.841111160035712]]},"properties":{"id":"r00031","name":"Cross Rd (test)","low_point_m":99.0}},{"type":"Feature","geometry":{"type":"LineString","coordinates":[[177.42000019894095,-17.841111160035712],[177.42000028647027,-17.8366667371711]]},"properties":{"id":"r00032","name":"Cross Rd (test)","low_point_m":99.0}},{"type":"Feature","geometry":{"type":"LineString","coordinates":[[177.42000028647027,-17.8366667371711],[177.42000036603937,-17.832222312341173]]},"properties":{"id":"r00033","name":"Cross Rd (test)","low_point_m":99.0}},{"type":"Feature","geometry":{"type":"LineString","coordinates":[[177.42000036603937,-17.832222312341173],[177.42000043764864,-17.827777885546425]]},"properties":{"id":"r00034","name":"Cross Rd (test)","low_point_m":99.0}},{"type":"Feature","geometry":{"type":"LineString","coordinates":[[177.42000043764864,-17.827777885546425],[177.42000050129843,-17.82333345678729]]},"properties":{"id":"r00035","name":"Cross Rd (test)","low_point_m":99.0}},{"type":"Feature","geometry":{"type":"LineString","coordinates":[[177.42000050129843,-17.82333345678729],[177.42000055698915,-17.818889026064202]]},"properties":{"id":"r00036","name":"Cross Rd (test)","low_point_m":99.0}},{"type":"Feature","geometry":{"type":"LineString","coordinates":[[177.42000055698915,-17.818889026064202],[177.4200006047212,-17.81444459337762]]},"properties":{"id":"r00037","name":"Cross Rd (test)","low_point_m":99.0}},{"type":"Feature","geometry":{"type":"LineString","coordinates":[[177.4200006047212,-17.81444459337762],[177.420000644495,-17.810000158728005]]},"properties":{"id":"r00038","name":"Cross Rd (test)","low_point_m":99.0}},{"type":"Feature","geometry":{"type":"LineString","coordinates":[[177.420000644495,-17.810000158728005],[177.42000067631085,-17.80555572211579]]},"properties":{"id":"r00039","name":"Cross Rd (test)","low_point_m":99.0}},{"type":"Feature","geometry":{"type":"LineString","coordinates":[[177.42000067631085,-17.80555572211579],[177.42000070016923,-17.80111128354144]]},"properties":{"id":"r00040","name":"Cross Rd (test)","low_point_m":99.0}},{"type":"Feature","geometry":{"type":"LineString","coordinates":[[177.42000070016923,-17.80111128354144],[177.42000071607046,-17.796666843005394]]},"properties":{"id":"r00041","name":"Cross Rd (test)","low_point_m":99.0}},{"type":"Feature","geometry":{"type":"LineString","coordinates":[[177.42000071607046,-17.796666843005394],[177.420000724015,-17.792222400508113]]},"properties":{"id":"r00042","name":"Cross Rd (test)","low_point_m":4.75}},{"type":"Feature","geometry":{"type":"LineString","coordinates":[[177.420000724015,-17.792222400508113],[177.42000072400322,-17.78777795605004]]},"properties":{"id":"r00043","name":"Cross Rd (test)","low_point_m":2.75}},{"type":"Feature","geometry":{"type":"LineString","coordinates":[[177.42000072400322,-17.78777795605004],[177.42000071603545,-17.783333509631625]]},"properties":{"id":"r00044","name":"Cross Rd (test)","low_point_m":1.0}},{"type":"Feature","geometry":{"type":"LineString","coordinates":[[177.42000071603545,-17.783333509631625],[177.42000070011215,-17.778889061253313]]},"properties":{"id":"r00045","name":"Cross Rd (test)","low_point_m":0.25}},{"type":"Feature","geometry":{"type":"LineString","coordinates":[[177.42000070011215,-17.778889061253313],[177.42000067623368,-17.77444461091557]]},"properties":{"id":"r00046","name":"Cross Rd (test)","low_point_m":0.5}},{"type":"Feature","geometry":{"type":"LineString","coordinates":[[177.42000067623368,-17.77444461091557],[177.42000064440043,-17.770000158618835]]},"properties":{"id":"r00047","name":"Cross Rd (test)","low_point_m":1.75}},{"type":"Feature","geometry":{"type":"LineString","coordinates":[[177.42000064440043,-17.770000158618835],[177.4200006046128,-17.76555570436356]]},"properties":{"id":"r00048","name":"Cross Rd (test)","low_point_m":3.25}},{"type":"Feature","geometry":{"type":"LineString","coordinates":[[177.4200006046128,-17.76555570436356],[177.42000055687114,-17.761111248150204]]},"properties":{"id":"r00049","name":"Cross Rd (test)","low_point_m":5.0}},{"type":"Feature","geometry":{"type":"LineString","coordinates":[[177.42000055687114,-17.761111248150204],[177.42000050117588,-17.756666789979207]]},"properties":{"id":"r00050","name":"Cross Rd (test)","low_point_m":99.0}},{"type":"Feature","geometry":{"type":"LineString","coordinates":[[177.42000050117588,-17.756666789979207],[177.4200004375274,-17.752222329851012]]},"properties":{"id":"r00051","name":"Cross Rd (test)","low_point_m":99.0}},{"type":"Feature","geometry":{"type":"LineString","coordinates":[[177.4200004375274,-17.752222329851012],[177.42000036592606,-17.747777867766086]]},"properties":{"id":"r00052","name":"Cross Rd (test)","low_point_m":99.0}},{"type":"Feature","geometry":{"type":"LineString","coordinates":[[177.42000036592606,-17.747777867766086],[177.42000028637224,-17.743333403724876]]},"properties":{"id":"r00053","name":"Cross Rd (test)","low_point_m":99.0}},{"type":"Feature","geometry":{"type":"LineString","coordinates":[[177.42000028637224,-17.743333403724876],[177.42000019886638,-17.738888937727832]]},"properties":{"id":"r00054","name":"Cross Rd (test)","low_point_m":99.0}},{"type":"Feature","geometry":{"type":"LineString","coordinates":[[177.42000019886638,-17.738888937727832],[177.42000010340882,-17.7344444697754]]},"properties":{"id":"r00055","name":"Cross Rd (test)","low_point_m":99.0}},{"type":"Feature","geometry":{"type":"LineString","coordinates":[[177.42000010340882,-17.7344444697754],[177.42,-17.729999999868035]]},"properties":{"id":"r00056","name":"Cross Rd (test)","low_point_m":99.0}},{"type":"Feature","geometry":{"type":"LineString","coordinates":[[177.47,-17.73999999986798],[177.47428590109536,-17.738571722892676]]},"properties":{"id":"r00057","name":"Hill Lane (test)","low_point_m":99.0}},{"type":"Feature","geometry":{"type":"LineString","coordinates":[[177.47428590109536,-17.738571722892676],[177.47857173994927,-17.737143347726636]]},"properties":{"id":"r00058","name":"Hill Lane (test)","low_point_m":99.0}},{"type":"Feature","geometry":{"type":"LineString","coordinates":[[177.47857173994927,-17.737143347726636],[177.4828575165447,-17.73571487439365]]},"properties":{"id":"r00059","name":"Hill Lane (test)","low_point_m":99.0}},{"type":"Feature","geometry":{"type":"LineString","coordinates":[[177.4828575165447,-17.73571487439365],[177.48714323086455,-17.734286302917493]]},"properties":{"id":"r00060","name":"Hill Lane (test)","low_point_m":99.0}},{"type":"Feature","geometry":{"type":"LineString","coordinates":[[177.48714323086455,-17.734286302917493],[177.49142888289174,-17.73285763332197]]},"properties":{"id":"r00061","name":"Hill Lane (test)","low_point_m":99.0}},{"type":"Feature","geometry":{"type":"LineString","coordinates":[[177.49142888289174,-17.73285763332197],[177.49571447260925,-17.731428865630882]]},"properties":{"id":"r00062","name":"Hill Lane (test)","low_point_m":99.0}},{"type":"Feature","geometry":{"type":"LineString","coordinates":[[177.49571447260925,-17.731428865630882],[177.5,-17.729999999868035]]},"properties":{"id":"r00063","name":"Hill Lane (test)","low_point_m":99.0}}]}